{"type": "FeatureCollection", "features": [{"geometry": {"type": "Point", "coordinates": [1068505.7297008275, 5721665.175]}, "type": "Feature", "properties": {"shop": "yes", "z_order": 0, "amenity": "fuel", "place_id": "2461443552", "display_name": "Brembo nord, Osio Sopra, BG, LOM, 24046, Italia, European Union", "name": "Brembo nord", "way_area": 76402.7, "lon": "9.59868720683781", "osm_type": "way", "licence": "Data \u00a9 OpenStreetMap contributors, ODbL 1.0. http://www.openstreetmap.org/copyright", "osm_id": "26770054", "lat": "45.6326818", "address": {"city": "Osio Sopra", "country": "Italia", "county": "BG", "state": "LOM", "postcode": "24046", "country_code": "it", "services": "Brembo nord", "yes": "Brembo nord", "continent": "European Union"}, "highway": "services"}}, {"geometry": {"type": "Point", "coordinates": [1068626.993153852, 5721527.359999999]}, "type": "Feature", "properties": {"shop": "yes", "z_order": 0, "amenity": "fuel", "place_id": "2461442720", "display_name": "Brembo sud, Osio Sopra, BG, LOM, 24046, Italia, European Union", "name": "Brembo sud", "way_area": 25598.4, "lon": "9.59976423974794", "osm_type": "way", "licence": "Data \u00a9 OpenStreetMap contributors, ODbL 1.0. http://www.openstreetmap.org/copyright", "osm_id": "26770062", "lat": "45.6318121", "address": {"city": "Osio Sopra", "country": "Italia", "county": "BG", "services": "Brembo sud", "state": "LOM", "postcode": "24046", "country_code": "it", "fuel": "Brembo sud", "continent": "European Union"}, "highway": "services"}}, {"geometry": {"type": "Point", "coordinates": [1068739.3352719587, 5731526.765000001]}, "type": "Feature", "properties": {"addr:housenumber": "18", "z_order": 0, "amenity": "fuel", "place_id": "79531985", "display_name": "Erg, 18, Via Lecco, Curno, BG, LOM, 24035, Italia, European Union", "building": "yes", "brand": "Erg", "way_area": 250.413, "lon": "9.60064899389009", "lat": "45.6944995", "osm_type": "way", "licence": "Data \u00a9 OpenStreetMap contributors, ODbL 1.0. http://www.openstreetmap.org/copyright", "osm_id": "133878338", "operator": "Erg", "address": {"city": "Curno", "house_number": "18", "country": "Italia", "county": "BG", "state": "LOM", "postcode": "24035", "country_code": "it", "fuel": "Erg", "continent": "European Union", "road": "Via Lecco"}, "name": "Erg"}}, {"geometry": {"type": "Point", "coordinates": [1068747.0332408305, 5731501.43]}, "type": "Feature", "properties": {"addr:housenumber": "18", "z_order": 10, "amenity": "fuel", "place_id": "78348552", "display_name": "Erg, 18, Via Lecco, Curno, BG, LOM, 24035, Italia, European Union", "building": "roof", "brand": "Erg", "way_area": 94.3566, "lon": "9.60071789306385", "layer": "1", "lat": "45.6943391", "osm_type": "way", "licence": "Data \u00a9 OpenStreetMap contributors, ODbL 1.0. http://www.openstreetmap.org/copyright", "osm_id": "133878337", "operator": "Erg", "address": {"city": "Curno", "house_number": "18", "country": "Italia", "county": "BG", "state": "LOM", "postcode": "24035", "country_code": "it", "fuel": "Erg", "continent": "European Union", "road": "Via Lecco"}, "name": "Erg"}}, {"geometry": {"type": "Point", "coordinates": [1068888.0683550187, 5730178.66]}, "type": "Feature", "properties": {"z_order": 10, "building": "roof", "amenity": "fuel", "place_id": "2445959701", "display_name": "Esso, Via Dalmine, Curno, BG, LOM, 24035, Italia, European Union", "brand": "Esso", "way_area": 424.576, "lon": "9.60198486711111", "layer": "1", "lat": "45.6860387", "osm_type": "way", "licence": "Data \u00a9 OpenStreetMap contributors, ODbL 1.0. http://www.openstreetmap.org/copyright", "osm_id": "201141626", "operator": "Esso", "address": {"city": "Curno", "country": "Italia", "county": "BG", "state": "LOM", "postcode": "24035", "country_code": "it", "fuel": "Esso", "continent": "European Union", "road": "Via Dalmine"}}}, {"geometry": {"type": "Point", "coordinates": [1068967.4919566382, 5730116.085]}, "type": "Feature", "properties": {"z_order": 10, "building": "roof", "amenity": "fuel", "place_id": "2445959702", "display_name": "Esso, Via Dalmine, Curno, BG, LOM, 24035, Italia, European Union", "brand": "Esso", "way_area": 190.571, "lon": "9.60269837786457", "layer": "1", "lat": "45.68564605", "osm_type": "way", "licence": "Data \u00a9 OpenStreetMap contributors, ODbL 1.0. http://www.openstreetmap.org/copyright", "osm_id": "201141630", "operator": "Esso", "address": {"city": "Curno", "country": "Italia", "county": "BG", "state": "LOM", "postcode": "24035", "country_code": "it", "fuel": "Esso", "continent": "European Union", "road": "Via Dalmine"}}}, {"geometry": {"type": "Point", "coordinates": [1069317.3088937723, 5723886.18]}, "type": "Feature", "properties": {"shop": "kiosk", "z_order": 0, "amenity": "fuel", "place_id": "2478584596", "display_name": "Eni, Viale Antonio Locatelli, Dalmine, BG, LOM, 24048, Italia, European Union", "brand": "Eni", "way_area": 3283.88, "lon": "9.6056531", "osm_type": "node", "licence": "Data \u00a9 OpenStreetMap contributors, ODbL 1.0. http://www.openstreetmap.org/copyright", "osm_id": "2448327496", "lat": "45.6467132", "address": {"city": "Dalmine", "country_code": "it", "country": "Italia", "county": "BG", "state": "LOM", "postcode": "24048", "address29": "Eni", "continent": "European Union", "road": "Viale Antonio Locatelli"}}}, {"geometry": {"type": "Point", "coordinates": [1069476.4852390955, 5729673.74]}, "type": "Feature", "properties": {"z_order": 0, "amenity": "fuel", "place_id": "62800978", "display_name": "Tamoil, Via Lega Lombarda, Curno, BG, LOM, 24035, Italia, European Union", "name": "Tamoil", "brand": "tamoil", "way_area": 3480.89, "lon": "9.60725854082628", "lat": "45.6828837963039", "osm_type": "way", "licence": "Data \u00a9 OpenStreetMap contributors, ODbL 1.0. http://www.openstreetmap.org/copyright", "osm_id": "90480770", "operator": "Tamoil", "address": {"city": "Curno", "country": "Italia", "county": "BG", "state": "LOM", "postcode": "24035", "country_code": "it", "fuel": "Tamoil", "continent": "European Union", "road": "Via Lega Lombarda"}}}, {"geometry": {"type": "Point", "coordinates": [1070527.1698849609, 5731203.015]}, "type": "Feature", "properties": {"addr:housenumber": "36", "z_order": 0, "amenity": "fuel", "place_id": "52340531", "display_name": "Q8, 36, Via Bergamo, Curno, BG, LOM, 24035, Italia", "name": "Q8", "brand": "Q8", "way_area": 730.944, "lon": "9.61670113426466", "lat": "45.6924217577294", "osm_type": "way", "licence": "Data \u00a9 OpenStreetMap contributors, ODbL 1.0. http://www.openstreetmap.org/copyright", "osm_id": "53539546", "operator": "Q8", "address": {"city": "Curno", "house_number": "36", "country": "Italia", "county": "BG", "state": "LOM", "postcode": "24035", "country_code": "it", "fuel": "Q8", "road": "Via Bergamo"}}}, {"geometry": {"type": "Point", "coordinates": [1070722.9, 5731162.8100000005]}, "type": "Feature", "properties": {"addr:housenumber": "40", "z_order": 0, "amenity": "fuel", "place_id": "52206676", "display_name": "Api, 40, Via Bergamo, Curno, BG, LOM, 24035, Italia", "building": "yes", "brand": "Api", "way_area": 141.622, "lon": "9.6184675", "lat": "45.69221445", "osm_type": "way", "licence": "Data \u00a9 OpenStreetMap contributors, ODbL 1.0. http://www.openstreetmap.org/copyright", "osm_id": "53539554", "operator": "Api", "address": {"city": "Curno", "house_number": "40", "country": "Italia", "county": "BG", "state": "LOM", "postcode": "24035", "country_code": "it", "fuel": "Api", "road": "Via Bergamo"}, "name": "Api"}}, {"geometry": {"type": "Point", "coordinates": [1071128.4844705435, 5731130.484999999]}, "type": "Feature", "properties": {"z_order": 0, "building": "yes", "amenity": "fuel", "place_id": "58622804", "display_name": "Shell, Via Bergamo, Curno, BG, LOM, 24035, Italia, European Union", "name": "Shell", "brand": "Shell", "way_area": 833.912, "lon": "9.62210970353683", "lat": "45.6920278635318", "osm_type": "way", "licence": "Data \u00a9 OpenStreetMap contributors, ODbL 1.0. http://www.openstreetmap.org/copyright", "osm_id": "77747030", "operator": "Shell", "address": {"city": "Curno", "country": "Italia", "county": "BG", "state": "LOM", "postcode": "24035", "country_code": "it", "fuel": "Shell", "continent": "European Union", "road": "Via Bergamo"}}}, {"geometry": {"type": "Point", "coordinates": [1071671.152278964, 5731012.195]}, "type": "Feature", "properties": {"z_order": 10, "building": "roof", "amenity": "fuel", "place_id": "74107318", "display_name": "Q8, Via Bergamo, Longuelo, Bergamo, BG, LOM, 24035, Italia, European Union", "name": "Q8", "brand": "q8", "way_area": 457.208, "lon": "9.62698576585687", "layer": "1", "lat": "45.6912693829966", "osm_type": "way", "licence": "Data \u00a9 OpenStreetMap contributors, ODbL 1.0. http://www.openstreetmap.org/copyright", "osm_id": "120415138", "operator": "Q8", "address": {"city": "Bergamo", "country": "Italia", "county": "BG", "suburb": "Longuelo", "state": "LOM", "postcode": "24035", "country_code": "it", "fuel": "Q8", "continent": "European Union", "road": "Via Bergamo"}}}, {"geometry": {"type": "Point", "coordinates": [1072447.914453003, 5726885.085]}, "type": "Feature", "properties": {"z_order": 0, "building": "roof", "amenity": "fuel", "place_id": "2491132874", "display_name": "Q8, Via Provinciale, Lallio, BG, LOM, 24048, Italia, European Union", "name": "Q8", "brand": "q8", "way_area": 636.9, "lon": "9.63396354999999", "lat": "45.66536595", "osm_type": "way", "licence": "Data \u00a9 OpenStreetMap contributors, ODbL 1.0. http://www.openstreetmap.org/copyright", "osm_id": "252085207", "operator": "Q8", "address": {"city": "Lallio", "country": "Italia", "county": "BG", "state": "LOM", "postcode": "24048", "country_code": "it", "fuel": "Q8", "continent": "European Union", "road": "Via Provinciale"}}}, {"geometry": {"type": "Point", "coordinates": [1073159.9649999999, 5737542.725]}, "type": "Feature", "properties": {"z_order": 0, "building": "yes", "amenity": "fuel", "place_id": "81064789", "display_name": "Agip, Via Martiri della Libert\u00e0, Sorisole, BG, LOM, 24018, Italia", "name": "Agip", "brand": "Agip", "way_area": 162.217, "lon": "9.64036", "lat": "45.7322331", "osm_type": "way", "licence": "Data \u00a9 OpenStreetMap contributors, ODbL 1.0. http://www.openstreetmap.org/copyright", "osm_id": "136569637", "operator": "Agip", "address": {"city": "Sorisole", "country": "Italia", "county": "BG", "state": "LOM", "postcode": "24018", "country_code": "it", "fuel": "Agip", "road": "Via Martiri della Libert\u00e0"}}}, {"geometry": {"type": "Point", "coordinates": [1073199.7697490496, 5737537.915]}, "type": "Feature", "properties": {"z_order": 10, "building": "roof", "amenity": "fuel", "place_id": "80216806", "display_name": "Agip, Via Martiri della Libert\u00e0, Sorisole, BG, LOM, 24018, Italia", "name": "Agip", "brand": "Agip", "way_area": 191.986, "lon": "9.64071755", "layer": "1", "lat": "45.73220295", "osm_type": "way", "licence": "Data \u00a9 OpenStreetMap contributors, ODbL 1.0. http://www.openstreetmap.org/copyright", "osm_id": "136569638", "operator": "Agip", "address": {"city": "Sorisole", "country": "Italia", "county": "BG", "state": "LOM", "postcode": "24018", "country_code": "it", "fuel": "Agip", "road": "Via Martiri della Libert\u00e0"}}}, {"geometry": {"type": "Point", "coordinates": [1073683.2536709695, 5731365.59]}, "type": "Feature", "properties": {"z_order": 0, "building": "yes", "amenity": "fuel", "place_id": "82222779", "display_name": "Eni, Via Paolo Gaffuri, Loreto, Bergamo, BG, LOM, 24128, Italia, European Union", "brand": "Eni", "way_area": 254.889, "lon": "9.64504798989217", "lat": "45.6934865074969", "osm_type": "way", "licence": "Data \u00a9 OpenStreetMap contributors, ODbL 1.0. http://www.openstreetmap.org/copyright", "osm_id": "142229315", "operator": "Eni", "address": {"city": "Bergamo", "country": "Italia", "county": "BG", "suburb": "Loreto", "state": "LOM", "postcode": "24128", "country_code": "it", "fuel": "Eni", "continent": "European Union", "road": "Via Paolo Gaffuri"}}}, {"geometry": {"type": "Point", "coordinates": [1073685.3684931109, 5731353.6]}, "type": "Feature", "properties": {"z_order": 10, "building": "roof", "amenity": "fuel", "place_id": "83009449", "display_name": "Eni, Via Broseta, Loreto, Bergamo, BG, LOM, 24128, Italia, European Union", "brand": "Eni", "way_area": 310.37, "lon": "9.64508005684315", "layer": "1", "lat": "45.6934122681255", "osm_type": "way", "licence": "Data \u00a9 OpenStreetMap contributors, ODbL 1.0. http://www.openstreetmap.org/copyright", "osm_id": "142229313", "operator": "Eni", "address": {"city": "Bergamo", "country": "Italia", "county": "BG", "suburb": "Loreto", "state": "LOM", "postcode": "24128", "country_code": "it", "fuel": "Eni", "continent": "European Union", "road": "Via Broseta"}}}, {"geometry": {"type": "Point", "coordinates": [1073949.89084845, 5730719.83]}, "type": "Feature", "properties": {"z_order": 0, "building": "roof", "amenity": "fuel", "place_id": "59015139", "display_name": "Esso, Via Giosu\u00e8 Carducci, Loreto, Bergamo, BG, LOM, 24128, Italia, European Union", "name": "Esso", "brand": "Kerapetrol", "way_area": 245.189, "lon": "9.6474560667122", "lat": "45.6894347246143", "osm_type": "way", "licence": "Data \u00a9 OpenStreetMap contributors, ODbL 1.0. http://www.openstreetmap.org/copyright", "osm_id": "80403977", "operator": "Esso", "address": {"city": "Bergamo", "country": "Italia", "county": "BG", "suburb": "Loreto", "state": "LOM", "postcode": "24128", "country_code": "it", "fuel": "Esso", "continent": "European Union", "road": "Via Giosu\u00e8 Carducci"}}}, {"geometry": {"type": "Point", "coordinates": [1074370.1587286058, 5729094.359999999]}, "type": "Feature", "properties": {"z_order": 0, "amenity": "fuel", "place_id": "59482539", "display_name": "Q8, Colognola, Bergamo, BG, LOM, 24127, Italia, European Union", "name": "Q8", "brand": "Q8", "way_area": 2338.58, "lon": "9.651163959808", "lat": "45.6791917484854", "osm_type": "way", "licence": "Data \u00a9 OpenStreetMap contributors, ODbL 1.0. http://www.openstreetmap.org/copyright", "osm_id": "82259223", "operator": "Q8", "address": {"city": "Bergamo", "suburb": "Colognola", "country": "Italia", "county": "BG", "services": "Q8", "state": "LOM", "postcode": "24127", "country_code": "it", "fuel": "Q8", "continent": "European Union"}, "highway": "services"}}, {"geometry": {"type": "Point", "coordinates": [1074399.2861337708, 5730720.115]}, "type": "Feature", "properties": {"z_order": 0, "amenity": "fuel", "place_id": "83009429", "display_name": "Agip, Via Giosu\u00e8 Carducci, Loreto, Bergamo, BG, LOM, 24128, Italia, European Union", "name": "Agip", "brand": "Agip", "way_area": 3962.53, "lon": "9.65147954649814", "lat": "45.6894254439562", "osm_type": "way", "licence": "Data \u00a9 OpenStreetMap contributors, ODbL 1.0. http://www.openstreetmap.org/copyright", "osm_id": "142229302", "operator": "Agip", "address": {"city": "Bergamo", "country": "Italia", "county": "BG", "suburb": "Loreto", "state": "LOM", "postcode": "24128", "country_code": "it", "fuel": "Agip", "continent": "European Union", "road": "Via Giosu\u00e8 Carducci"}}}, {"geometry": {"type": "Point", "coordinates": [1074397.7850000001, 5730718.35]}, "type": "Feature", "properties": {"z_order": 10, "building": "roof", "amenity": "fuel", "place_id": "83009429", "display_name": "Agip, Via Giosu\u00e8 Carducci, Loreto, Bergamo, BG, LOM, 24128, Italia, European Union", "name": "Agip", "brand": "Agip", "way_area": 590.827, "lon": "9.65147954649814", "layer": "1", "lat": "45.6894254439562", "osm_type": "way", "licence": "Data \u00a9 OpenStreetMap contributors, ODbL 1.0. http://www.openstreetmap.org/copyright", "osm_id": "142229302", "operator": "Agip", "address": {"city": "Bergamo", "country": "Italia", "county": "BG", "suburb": "Loreto", "state": "LOM", "postcode": "24128", "country_code": "it", "fuel": "Agip", "continent": "European Union", "road": "Via Giosu\u00e8 Carducci"}}}, {"geometry": {"type": "Point", "coordinates": [1074398.4584536653, 5730735.76]}, "type": "Feature", "properties": {"z_order": 0, "building": "yes", "amenity": "fuel", "place_id": "81620340", "display_name": "Agip, Via Giosu\u00e8 Carducci, Loreto, Bergamo, BG, LOM, 24128, Italia, European Union", "name": "Agip", "brand": "Agip", "way_area": 82.994, "lon": "9.65148531342783", "lat": "45.68953500975", "osm_type": "way", "licence": "Data \u00a9 OpenStreetMap contributors, ODbL 1.0. http://www.openstreetmap.org/copyright", "osm_id": "142229301", "operator": "Agip", "address": {"city": "Bergamo", "country": "Italia", "county": "BG", "suburb": "Loreto", "state": "LOM", "postcode": "24128", "country_code": "it", "fuel": "Agip", "continent": "European Union", "road": "Via Giosu\u00e8 Carducci"}}}, {"geometry": {"type": "Point", "coordinates": [1074441.894607992, 5731425.8100000005]}, "type": "Feature", "properties": {"z_order": 0, "building": "yes", "amenity": "fuel", "place_id": "81266213", "display_name": "TotalErg, Via Broseta, Loreto, Bergamo, BG, LOM, 24128, Italia, European Union", "name": "TotalErg", "brand": "TotalErg", "way_area": 239.288, "lon": "9.65186065979041", "lat": "45.6938363222479", "osm_type": "way", "licence": "Data \u00a9 OpenStreetMap contributors, ODbL 1.0. http://www.openstreetmap.org/copyright", "osm_id": "142229306", "operator": "TotalErg", "address": {"city": "Bergamo", "country": "Italia", "county": "BG", "suburb": "Loreto", "state": "LOM", "postcode": "24128", "country_code": "it", "fuel": "TotalErg", "continent": "European Union", "road": "Via Broseta"}}}, {"geometry": {"type": "Point", "coordinates": [1074452.8383214753, 5731417.085]}, "type": "Feature", "properties": {"z_order": 10, "building": "roof", "amenity": "fuel", "place_id": "82541253", "display_name": "TotalErg, Via Broseta, Loreto, Bergamo, BG, LOM, 24128, Italia, European Union", "name": "TotalErg", "brand": "TotalErg", "way_area": 308.113, "lon": "9.65198835471237", "layer": "1", "lat": "45.6937937665837", "osm_type": "way", "licence": "Data \u00a9 OpenStreetMap contributors, ODbL 1.0. http://www.openstreetmap.org/copyright", "osm_id": "142229307", "operator": "TotalErg", "address": {"city": "Bergamo", "country": "Italia", "county": "BG", "suburb": "Loreto", "state": "LOM", "postcode": "24128", "country_code": "it", "fuel": "TotalErg", "continent": "European Union", "road": "Via Broseta"}}}, {"geometry": {"type": "Point", "coordinates": [1074873.405, 5731378.05]}, "type": "Feature", "properties": {"z_order": 0, "building": "yes", "amenity": "fuel", "place_id": "72516033", "display_name": "Eni, Via Legionari in Polonia, Citt\u00e0 Alta, Bergamo, BG, LOM, 24100, Italia, European Union", "brand": "Eni", "way_area": 867.027, "lon": "9.65575210286358", "lat": "45.6935649892343", "osm_type": "way", "licence": "Data \u00a9 OpenStreetMap contributors, ODbL 1.0. http://www.openstreetmap.org/copyright", "osm_id": "115523755", "operator": "Eni", "address": {"city": "Bergamo", "country": "Italia", "county": "BG", "suburb": "Citt\u00e0 Alta", "state": "LOM", "postcode": "24100", "country_code": "it", "fuel": "Eni", "continent": "European Union", "road": "Via Legionari in Polonia"}}}, {"geometry": {"type": "Point", "coordinates": [1074870.7230137377, 5731351.859999999]}, "type": "Feature", "properties": {"z_order": 10, "building": "roof", "amenity": "fuel", "place_id": "72046214", "display_name": "Eni, Via Broseta, Loreto, Bergamo, BG, LOM, 24128, Italia, European Union", "brand": "Eni", "way_area": 568.896, "lon": "9.65572841772806", "layer": "1", "lat": "45.693400613878", "osm_type": "way", "licence": "Data \u00a9 OpenStreetMap contributors, ODbL 1.0. http://www.openstreetmap.org/copyright", "osm_id": "115523750", "operator": "Eni", "address": {"city": "Bergamo", "country": "Italia", "county": "BG", "suburb": "Loreto", "state": "LOM", "postcode": "24128", "country_code": "it", "fuel": "Eni", "continent": "European Union", "road": "Via Broseta"}}}, {"geometry": {"type": "Point", "coordinates": [1074928.6843133052, 5729923.675000001]}, "type": "Feature", "properties": {"shop": "newsagent", "z_order": 0, "amenity": "fuel", "place_id": "2436436648", "display_name": "Te, Via Gianbattista Moroni, Colognola, Bergamo, BG, LOM, 24127, Italia, European Union", "building": "yes", "brand": "Independent", "way_area": 255.772, "lon": "9.6562257583267", "lat": "45.684413", "osm_type": "way", "licence": "Data \u00a9 OpenStreetMap contributors, ODbL 1.0. http://www.openstreetmap.org/copyright", "osm_id": "189090412", "operator": "Te", "address": {"city": "Bergamo", "country": "Italia", "county": "BG", "suburb": "Colognola", "state": "LOM", "postcode": "24127", "country_code": "it", "fuel": "Te", "continent": "European Union", "road": "Via Gianbattista Moroni"}, "name": "Te"}}, {"geometry": {"type": "Point", "coordinates": [1074944.6132523704, 5729917.665]}, "type": "Feature", "properties": {"z_order": 10, "building": "roof", "amenity": "fuel", "place_id": "2436436646", "display_name": "Te, Via Gianbattista Moroni, Colognola, Bergamo, BG, LOM, 24127, Italia, European Union", "name": "Te", "brand": "Independent", "way_area": 584.906, "lon": "9.65639308659915", "layer": "1", "lat": "45.68440225", "osm_type": "way", "licence": "Data \u00a9 OpenStreetMap contributors, ODbL 1.0. http://www.openstreetmap.org/copyright", "osm_id": "189090411", "operator": "Te", "address": {"city": "Bergamo", "country": "Italia", "county": "BG", "suburb": "Colognola", "state": "LOM", "postcode": "24127", "country_code": "it", "fuel": "Te", "continent": "European Union", "road": "Via Gianbattista Moroni"}}}, {"geometry": {"type": "Point", "coordinates": [1075001.0424284555, 5730705.0]}, "type": "Feature", "properties": {"z_order": 10, "building": "roof", "amenity": "fuel", "place_id": "59095121", "display_name": "Energia Siciliana, Via Giosu\u00e8 Carducci, Malpensata, Bergamo, BG, LOM, 24128, Italia, European Union", "name": "Energia Siciliana", "brand": "Energia Siciliana", "way_area": 211.729, "lon": "9.6568987", "layer": "1", "osm_type": "way", "licence": "Data \u00a9 OpenStreetMap contributors, ODbL 1.0. http://www.openstreetmap.org/copyright", "osm_id": "79933687", "lat": "45.6893417", "address": {"city": "Bergamo", "country": "Italia", "county": "BG", "suburb": "Malpensata", "state": "LOM", "postcode": "24128", "country_code": "it", "fuel": "Energia Siciliana", "continent": "European Union", "road": "Via Giosu\u00e8 Carducci"}}}, {"geometry": {"type": "Point", "coordinates": [1075105.7731876692, 5731275.58]}, "type": "Feature", "properties": {"z_order": 10, "building": "roof", "amenity": "fuel", "place_id": "70774928", "display_name": "Esso, Via Broseta, Loreto, Bergamo, BG, LOM, 24128, Italia", "name": "Esso", "brand": "Esso", "way_area": 142.178, "lon": "9.65783947825665", "layer": "1", "lat": "45.6929223303964", "osm_type": "way", "licence": "Data \u00a9 OpenStreetMap contributors, ODbL 1.0. http://www.openstreetmap.org/copyright", "osm_id": "115523748", "operator": "Esso", "address": {"city": "Bergamo", "country": "Italia", "county": "BG", "suburb": "Loreto", "state": "LOM", "postcode": "24128", "country_code": "it", "fuel": "Esso", "road": "Via Broseta"}}}, {"geometry": {"type": "Point", "coordinates": [1075407.6162947451, 5728392.609999999]}, "type": "Feature", "properties": {"z_order": 0, "building": "yes", "amenity": "fuel", "place_id": "78024621", "display_name": "Q8, Via San Bernardino, Colognola, Bergamo, BG, LOM, 24126, Italia, European Union", "name": "Q8", "brand": "q8", "way_area": 271.701, "lon": "9.66056605277813", "lat": "45.6748106467145", "osm_type": "way", "licence": "Data \u00a9 OpenStreetMap contributors, ODbL 1.0. http://www.openstreetmap.org/copyright", "osm_id": "130002621", "operator": "Q8", "address": {"city": "Bergamo", "country": "Italia", "county": "BG", "suburb": "Colognola", "state": "LOM", "postcode": "24126", "country_code": "it", "fuel": "Q8", "continent": "European Union", "road": "Via San Bernardino"}}}, {"geometry": {"type": "Point", "coordinates": [1075423.819999996, 5728400.845000001]}, "type": "Feature", "properties": {"z_order": 10, "building": "roof", "amenity": "fuel", "place_id": "77645585", "display_name": "Q8, Via San Bernardino, Colognola, Bergamo, BG, LOM, 24126, Italia, European Union", "name": "Q8", "brand": "q8", "way_area": 383.407, "lon": "9.66069427610867", "layer": "1", "lat": "45.6748721841716", "osm_type": "way", "licence": "Data \u00a9 OpenStreetMap contributors, ODbL 1.0. http://www.openstreetmap.org/copyright", "osm_id": "130002622", "operator": "Q8", "address": {"city": "Bergamo", "country": "Italia", "county": "BG", "suburb": "Colognola", "state": "LOM", "postcode": "24126", "country_code": "it", "fuel": "Q8", "continent": "European Union", "road": "Via San Bernardino"}}}, {"geometry": {"type": "Point", "coordinates": [1075516.5402273268, 5729303.9]}, "type": "Feature", "properties": {"z_order": 0, "building": "yes", "amenity": "fuel", "place_id": "2513508742", "display_name": "Motor Simon, Via Guido Galli, Colognola, Bergamo, BG, LOM, 24127, Italia, European Union", "brand": "Eni", "way_area": 753.108, "lon": "9.6615445", "osm_type": "node", "licence": "Data \u00a9 OpenStreetMap contributors, ODbL 1.0. http://www.openstreetmap.org/copyright", "osm_id": "2832323384", "lat": "45.680666", "address": {"city": "Bergamo", "country": "Italia", "county": "BG", "suburb": "Colognola", "state": "LOM", "postcode": "24127", "country_code": "it", "car_repair": "Motor Simon", "continent": "European Union", "road": "Via Guido Galli"}}}, {"geometry": {"type": "Point", "coordinates": [1075709.082606567, 5728552.99]}, "type": "Feature", "properties": {"z_order": 10, "building": "roof", "amenity": "fuel", "place_id": "2442602967", "display_name": "Tamoil, SS42, Colognola, Bergamo, BG, LOM, 24126, Italia, European Union", "name": "Tamoil", "brand": "Tamoil", "way_area": 605.722, "lon": "9.6632591", "layer": "1", "lat": "45.67583585", "osm_type": "way", "licence": "Data \u00a9 OpenStreetMap contributors, ODbL 1.0. http://www.openstreetmap.org/copyright", "osm_id": "197556540", "operator": "Tamoil", "address": {"city": "Bergamo", "country": "Italia", "county": "BG", "suburb": "Colognola", "state": "LOM", "postcode": "24126", "country_code": "it", "fuel": "Tamoil", "continent": "European Union", "road": "SS42"}}}, {"geometry": {"type": "Point", "coordinates": [1075779.203880597, 5730545.7]}, "type": "Feature", "properties": {"z_order": 0, "building": "yes", "amenity": "fuel", "place_id": "72256829", "display_name": "Q8, Via Don Luigi Palazzolo, Malpensata, Bergamo, BG, LOM, 24128, Italia, European Union", "name": "Q8", "brand": "Q8", "way_area": 229.415, "lon": "9.66404258772871", "lat": "45.6883509756288", "osm_type": "way", "licence": "Data \u00a9 OpenStreetMap contributors, ODbL 1.0. http://www.openstreetmap.org/copyright", "osm_id": "116841811", "operator": "Q8", "address": {"city": "Bergamo", "country": "Italia", "county": "BG", "suburb": "Malpensata", "state": "LOM", "postcode": "24128", "country_code": "it", "fuel": "Q8", "continent": "European Union", "road": "Via Don Luigi Palazzolo"}}}, {"geometry": {"type": "Point", "coordinates": [1076292.0044137752, 5734450.585]}, "type": "Feature", "properties": {"z_order": 10, "building": "roof", "amenity": "fuel", "place_id": "74173318", "display_name": "Agip, Via Cristoforo Baioni, Valtesse, Bergamo, BG, LOM, 24123, Italia, European Union", "name": "Agip", "brand": "Agip", "way_area": 413.975, "lon": "9.66855496088088", "layer": "1", "lat": "45.7128403087128", "osm_type": "way", "licence": "Data \u00a9 OpenStreetMap contributors, ODbL 1.0. http://www.openstreetmap.org/copyright", "osm_id": "120711679", "operator": "Agip", "address": {"city": "Bergamo", "country": "Italia", "county": "BG", "suburb": "Valtesse", "state": "LOM", "postcode": "24123", "country_code": "it", "fuel": "Agip", "continent": "European Union", "road": "Via Cristoforo Baioni"}}}, {"geometry": {"type": "Point", "coordinates": [1076716.5240898472, 5728920.11]}, "type": "Feature", "properties": {"z_order": 0, "building": "yes", "amenity": "fuel", "place_id": "58541920", "display_name": "Q8, Circonvallazione Paltriniano, Malpensata, Bergamo, BG, LOM, 24126, Italia, European Union", "name": "Q8", "brand": "q8", "way_area": 875.16, "lon": "9.6723220973471", "lat": "45.6781257127268", "osm_type": "way", "licence": "Data \u00a9 OpenStreetMap contributors, ODbL 1.0. http://www.openstreetmap.org/copyright", "osm_id": "80343805", "operator": "Q8", "address": {"city": "Bergamo", "country": "Italia", "county": "BG", "suburb": "Malpensata", "state": "LOM", "postcode": "24126", "country_code": "it", "fuel": "Q8", "continent": "European Union", "road": "Circonvallazione Paltriniano"}}}, {"geometry": {"type": "Point", "coordinates": [1076768.7728277603, 5734959.775]}, "type": "Feature", "properties": {"z_order": 0, "building": "yes", "amenity": "fuel", "place_id": "83649585", "display_name": "IP, Circonvallazione Plorzano, Valtesse, Bergamo, BG, LOM, 24123, Italia, European Union", "name": "IP", "brand": "IP", "way_area": 339.758, "lon": "9.67277840497531", "lat": "45.7160347844757", "osm_type": "way", "licence": "Data \u00a9 OpenStreetMap contributors, ODbL 1.0. http://www.openstreetmap.org/copyright", "osm_id": "147001908", "operator": "IP", "address": {"city": "Bergamo", "country": "Italia", "county": "BG", "suburb": "Valtesse", "state": "LOM", "postcode": "24123", "country_code": "it", "fuel": "IP", "continent": "European Union", "road": "Circonvallazione Plorzano"}}}, {"geometry": {"type": "Point", "coordinates": [1077242.86103, 5731436.67]}, "type": "Feature", "properties": {"z_order": 10, "building": "roof", "amenity": "fuel", "place_id": "87867010", "display_name": "Shell, Via Angelo Maj, Borgo Palazzo, Bergamo, BG, LOM, 24121, Italia, European Union", "name": "Shell", "brand": "Shell", "way_area": 387.976, "lon": "9.67702710083787", "layer": "1", "lat": "45.6939245578937", "osm_type": "way", "licence": "Data \u00a9 OpenStreetMap contributors, ODbL 1.0. http://www.openstreetmap.org/copyright", "osm_id": "159134648", "operator": "Shell", "address": {"city": "Bergamo", "country": "Italia", "county": "BG", "suburb": "Borgo Palazzo", "state": "LOM", "postcode": "24121", "country_code": "it", "fuel": "Shell", "continent": "European Union", "road": "Via Angelo Maj"}}}, {"geometry": {"type": "Point", "coordinates": [1077434.9184403569, 5726859.105]}, "type": "Feature", "properties": {"addr:housenumber": "119", "z_order": 0, "amenity": "fuel", "place_id": "57998468", "display_name": "Metano, 119, Via per Zanica, Campagnola, Bergamo, BG, LOM, 24126, Italia, European Union", "building": "yes", "brand": "Metano", "way_area": 1832.24, "lon": "9.67870232491844", "lat": "45.6651152600845", "osm_type": "way", "licence": "Data \u00a9 OpenStreetMap contributors, ODbL 1.0. http://www.openstreetmap.org/copyright", "osm_id": "75422754", "operator": "Metano", "address": {"city": "Bergamo", "house_number": "119", "country": "Italia", "county": "BG", "suburb": "Campagnola", "state": "LOM", "postcode": "24126", "country_code": "it", "fuel": "Metano", "continent": "European Union", "road": "Via per Zanica"}, "name": "Metano"}}, {"geometry": {"type": "Point", "coordinates": [1077526.950292103, 5733378.18]}, "type": "Feature", "properties": {"shop": "yes", "z_order": 10, "amenity": "fuel", "place_id": "92529608", "display_name": "TotalErg, Viale Giulio Cesare, Borgo Santa Caterina, Bergamo, BG, LOM, 24123, Italia, European Union", "building": "roof", "brand": "TotalErg", "way_area": 549.333, "lon": "9.67957485673598", "layer": "1", "lat": "45.7060874416508", "osm_type": "way", "licence": "Data \u00a9 OpenStreetMap contributors, ODbL 1.0. http://www.openstreetmap.org/copyright", "osm_id": "169303520", "operator": "Erg", "address": {"city": "Bergamo", "country": "Italia", "county": "BG", "suburb": "Borgo Santa Caterina", "state": "LOM", "postcode": "24123", "country_code": "it", "yes": "TotalErg", "continent": "European Union", "road": "Viale Giulio Cesare"}, "name": "TotalErg"}}, {"geometry": {"type": "Point", "coordinates": [1077600.9016824318, 5731549.22]}, "type": "Feature", "properties": {"z_order": 10, "building": "roof", "amenity": "fuel", "place_id": "84009888", "display_name": "Agip, Via Angelo Maj, Borgo Palazzo, Bergamo, BG, LOM, 24124, Italia, European Union", "name": "Agip", "brand": "Agip", "way_area": 516.832, "lon": "9.68025362202679", "layer": "1", "lat": "45.6946390557403", "osm_type": "way", "licence": "Data \u00a9 OpenStreetMap contributors, ODbL 1.0. http://www.openstreetmap.org/copyright", "osm_id": "150885859", "operator": "Agip", "address": {"city": "Bergamo", "country": "Italia", "county": "BG", "suburb": "Borgo Palazzo", "state": "LOM", "postcode": "24124", "country_code": "it", "fuel": "Agip", "continent": "European Union", "road": "Via Angelo Maj"}}}, {"geometry": {"type": "Point", "coordinates": [1077606.321009776, 5731531.955]}, "type": "Feature", "properties": {"z_order": 0, "building": "yes", "amenity": "fuel", "place_id": "83822604", "display_name": "Agip, Via Angelo Maj, Borgo Palazzo, Bergamo, BG, LOM, 24124, Italia, European Union", "name": "Agip", "brand": "Agip", "way_area": 341.416, "lon": "9.68030171753554", "lat": "45.6945297069941", "osm_type": "way", "licence": "Data \u00a9 OpenStreetMap contributors, ODbL 1.0. http://www.openstreetmap.org/copyright", "osm_id": "150885860", "operator": "Agip", "address": {"city": "Bergamo", "country": "Italia", "county": "BG", "suburb": "Borgo Palazzo", "state": "LOM", "postcode": "24124", "country_code": "it", "fuel": "Agip", "continent": "European Union", "road": "Via Angelo Maj"}}}, {"geometry": {"type": "Point", "coordinates": [1077788.007427386, 5734544.3100000005]}, "type": "Feature", "properties": {"z_order": 10, "building": "roof", "amenity": "fuel", "place_id": "77721372", "display_name": "Retitalia, Via Ponte Pietra, Conca Fiorita, Bergamo, BG, LOM, 24123, Italia, European Union", "name": "Retitalia", "brand": "Retitalia", "way_area": 134.907, "lon": "9.6819344", "layer": "1", "lat": "45.7134288", "osm_type": "way", "licence": "Data \u00a9 OpenStreetMap contributors, ODbL 1.0. http://www.openstreetmap.org/copyright", "osm_id": "129826385", "operator": "Retitalia", "address": {"city": "Bergamo", "country": "Italia", "county": "BG", "suburb": "Conca Fiorita", "state": "LOM", "postcode": "24123", "country_code": "it", "fuel": "Retitalia", "continent": "European Union", "road": "Via Ponte Pietra"}}}, {"geometry": {"type": "Point", "coordinates": [1078118.0325570863, 5730217.295]}, "type": "Feature", "properties": {"z_order": 0, "amenity": "fuel", "place_id": "57666222", "display_name": "Agip, Circonvallazione Mugazzone, Campagnola, Bergamo, BG, LOM, 24121, Italia, European Union", "name": "Agip", "brand": "Agip", "way_area": 147.577, "lon": "9.68489906016572", "lat": "45.6862811900862", "osm_type": "way", "licence": "Data \u00a9 OpenStreetMap contributors, ODbL 1.0. http://www.openstreetmap.org/copyright", "osm_id": "73679827", "operator": "Agip", "address": {"city": "Bergamo", "country": "Italia", "county": "BG", "suburb": "Campagnola", "state": "LOM", "postcode": "24121", "country_code": "it", "fuel": "Agip", "continent": "European Union", "road": "Circonvallazione Mugazzone"}}}, {"geometry": {"type": "Point", "coordinates": [1078155.961556463, 5732293.73]}, "type": "Feature", "properties": {"z_order": 0, "amenity": "fuel", "place_id": "81931764", "display_name": "Shell, Via Vittore Ghislandi, Borgo Palazzo, Bergamo, BG, LOM, 24124, Italia, European Union", "name": "Shell", "brand": "Shell", "way_area": 1901.06, "lon": "9.68523137280519", "lat": "45.6993624996542", "osm_type": "way", "licence": "Data \u00a9 OpenStreetMap contributors, ODbL 1.0. http://www.openstreetmap.org/copyright", "osm_id": "142229305", "operator": "Shell", "address": {"city": "Bergamo", "country": "Italia", "county": "BG", "suburb": "Borgo Palazzo", "state": "LOM", "postcode": "24124", "country_code": "it", "fuel": "Shell", "continent": "European Union", "road": "Via Vittore Ghislandi"}, "highway": "services"}}, {"geometry": {"type": "Point", "coordinates": [1078146.25315016, 5732307.085]}, "type": "Feature", "properties": {"z_order": 0, "building": "yes", "amenity": "fuel", "place_id": "81931764", "display_name": "Shell, Via Vittore Ghislandi, Borgo Palazzo, Bergamo, BG, LOM, 24124, Italia, European Union", "name": "Shell", "brand": "Shell", "way_area": 47.7899, "lon": "9.68523137280519", "lat": "45.6993624996542", "osm_type": "way", "licence": "Data \u00a9 OpenStreetMap contributors, ODbL 1.0. http://www.openstreetmap.org/copyright", "osm_id": "142229305", "operator": "Shell", "address": {"city": "Bergamo", "country": "Italia", "county": "BG", "suburb": "Borgo Palazzo", "state": "LOM", "postcode": "24124", "country_code": "it", "fuel": "Shell", "continent": "European Union", "road": "Via Vittore Ghislandi"}}}, {"geometry": {"type": "Point", "coordinates": [1078158.0669512807, 5732299.095]}, "type": "Feature", "properties": {"z_order": 10, "building": "roof", "amenity": "fuel", "place_id": "81931764", "display_name": "Shell, Via Vittore Ghislandi, Borgo Palazzo, Bergamo, BG, LOM, 24124, Italia, European Union", "name": "Shell", "brand": "Shell", "way_area": 331.639, "lon": "9.68523137280519", "layer": "1", "lat": "45.6993624996542", "osm_type": "way", "licence": "Data \u00a9 OpenStreetMap contributors, ODbL 1.0. http://www.openstreetmap.org/copyright", "osm_id": "142229305", "operator": "Shell", "address": {"city": "Bergamo", "country": "Italia", "county": "BG", "suburb": "Borgo Palazzo", "state": "LOM", "postcode": "24124", "country_code": "it", "fuel": "Shell", "continent": "European Union", "road": "Via Vittore Ghislandi"}}}, {"geometry": {"type": "Point", "coordinates": [1078309.5136891645, 5732647.025]}, "type": "Feature", "properties": {"z_order": 10, "building": "roof", "amenity": "fuel", "place_id": "88951963", "display_name": "Q8, Via Fratelli Bronzetti, Borgo Santa Caterina, Bergamo, BG, LOM, 24124, Italia, European Union", "name": "Q8", "brand": "q8", "way_area": 221.063, "lon": "9.68661917991468", "layer": "1", "lat": "45.7015269024149", "osm_type": "way", "licence": "Data \u00a9 OpenStreetMap contributors, ODbL 1.0. http://www.openstreetmap.org/copyright", "osm_id": "160824367", "operator": "Q8", "address": {"city": "Bergamo", "country": "Italia", "county": "BG", "suburb": "Borgo Santa Caterina", "state": "LOM", "postcode": "24124", "country_code": "it", "fuel": "Q8", "continent": "European Union", "road": "Via Fratelli Bronzetti"}}}, {"geometry": {"type": "Point", "coordinates": [1078328.433919136, 5732644.4350000005]}, "type": "Feature", "properties": {"z_order": 0, "building": "yes", "amenity": "fuel", "place_id": "88510276", "display_name": "Q8, Via Santi Maurizio e Fermo, Borgo Palazzo, Bergamo, BG, LOM, 24124, Italia, European Union", "name": "Q8", "brand": "q8", "way_area": 768.571, "lon": "9.68678488044182", "lat": "45.7015015221081", "osm_type": "way", "licence": "Data \u00a9 OpenStreetMap contributors, ODbL 1.0. http://www.openstreetmap.org/copyright", "osm_id": "160824369", "operator": "Q8", "address": {"city": "Bergamo", "country": "Italia", "county": "BG", "suburb": "Borgo Palazzo", "state": "LOM", "postcode": "24124", "country_code": "it", "fuel": "Q8", "continent": "European Union", "road": "Via Santi Maurizio e Fermo"}}}, {"geometry": {"type": "Point", "coordinates": [1078753.5958476078, 5731417.734999999]}, "type": "Feature", "properties": {"z_order": 0, "amenity": "fuel", "place_id": "60603168", "display_name": "IP, Boccaleone, Bergamo, BG, LOM, 24125, Italia, European Union", "name": "IP", "brand": "IP", "way_area": 1350.37, "lon": "9.69060691374406", "lat": "45.69381135", "osm_type": "way", "licence": "Data \u00a9 OpenStreetMap contributors, ODbL 1.0. http://www.openstreetmap.org/copyright", "osm_id": "85586576", "operator": "IP", "address": {"city": "Bergamo", "suburb": "Boccaleone", "country": "Italia", "county": "BG", "services": "IP", "state": "LOM", "postcode": "24125", "country_code": "it", "fuel": "IP", "continent": "European Union"}, "highway": "services"}}, {"geometry": {"type": "Point", "coordinates": [1078758.2196403744, 5731427.48]}, "type": "Feature", "properties": {"z_order": 0, "building": "yes", "amenity": "fuel", "place_id": "60603168", "display_name": "IP, Boccaleone, Bergamo, BG, LOM, 24125, Italia, European Union", "name": "IP", "brand": "ip", "way_area": 203.584, "lon": "9.69060691374406", "lat": "45.69381135", "osm_type": "way", "licence": "Data \u00a9 OpenStreetMap contributors, ODbL 1.0. http://www.openstreetmap.org/copyright", "osm_id": "85586576", "operator": "IP", "address": {"city": "Bergamo", "suburb": "Boccaleone", "country": "Italia", "county": "BG", "services": "IP", "state": "LOM", "postcode": "24125", "country_code": "it", "fuel": "IP", "continent": "European Union"}}}, {"geometry": {"type": "Point", "coordinates": [1078977.737147809, 5733663.27]}, "type": "Feature", "properties": {"z_order": 10, "building": "roof", "amenity": "fuel", "place_id": "70957744", "display_name": "Agip, Via Filippo Corridoni, Redona, Bergamo, BG, LOM, 24124, Italia, European Union", "name": "Agip", "brand": "Agip", "way_area": 699.654, "lon": "9.6926225098581", "layer": "1", "lat": "45.7079055070843", "osm_type": "way", "licence": "Data \u00a9 OpenStreetMap contributors, ODbL 1.0. http://www.openstreetmap.org/copyright", "osm_id": "113973352", "operator": "Agip", "address": {"city": "Bergamo", "country": "Italia", "county": "BG", "suburb": "Redona", "state": "LOM", "postcode": "24124", "country_code": "it", "fuel": "Agip", "continent": "European Union", "road": "Via Filippo Corridoni"}}}, {"geometry": {"type": "Point", "coordinates": [1078987.7697831905, 5733643.265000001]}, "type": "Feature", "properties": {"z_order": 0, "building": "yes", "amenity": "fuel", "place_id": "2437975909", "display_name": "Agip, Via Quinto Alpini, Redona, Bergamo, BG, LOM, 24124, Italia, European Union", "name": "Agip", "brand": "Agip", "way_area": 355.257, "lon": "9.69271202337694", "lat": "45.7077767066647", "osm_type": "way", "licence": "Data \u00a9 OpenStreetMap contributors, ODbL 1.0. http://www.openstreetmap.org/copyright", "osm_id": "190971844", "operator": "Agip", "address": {"city": "Bergamo", "country": "Italia", "county": "BG", "suburb": "Redona", "state": "LOM", "postcode": "24124", "country_code": "it", "fuel": "Agip", "continent": "European Union", "road": "Via Quinto Alpini"}}}, {"geometry": {"type": "Point", "coordinates": [1079394.1779520446, 5732377.025]}, "type": "Feature", "properties": {"z_order": 10, "building": "roof", "amenity": "fuel", "place_id": "80117190", "display_name": "IP, Circonvallazione delle Valli, Boccaleone, Bergamo, BG, LOM, 24125, Italia, European Union", "name": "IP", "brand": "ip", "way_area": 154.667, "lon": "9.69636256540885", "layer": "1", "lat": "45.6998335375325", "osm_type": "way", "licence": "Data \u00a9 OpenStreetMap contributors, ODbL 1.0. http://www.openstreetmap.org/copyright", "osm_id": "136170482", "operator": "IP", "address": {"city": "Bergamo", "country": "Italia", "county": "BG", "suburb": "Boccaleone", "state": "LOM", "postcode": "24125", "country_code": "it", "fuel": "IP", "continent": "European Union", "road": "Circonvallazione delle Valli"}}}, {"geometry": {"type": "Point", "coordinates": [1079742.0820714026, 5733464.6]}, "type": "Feature", "properties": {"z_order": 10, "building": "roof", "amenity": "fuel", "place_id": "86690255", "display_name": "Q8, Via Cesare Correnti, Redona, Bergamo, BG, LOM, 24125, Italia, European Union", "name": "Q8", "brand": "q8", "way_area": 292.845, "lon": "9.69949133068153", "layer": "1", "lat": "45.7066535", "osm_type": "way", "licence": "Data \u00a9 OpenStreetMap contributors, ODbL 1.0. http://www.openstreetmap.org/copyright", "osm_id": "158229988", "operator": "Q8", "address": {"city": "Bergamo", "country": "Italia", "county": "BG", "suburb": "Redona", "state": "LOM", "postcode": "24125", "country_code": "it", "fuel": "Q8", "continent": "European Union", "road": "Via Cesare Correnti"}}}, {"geometry": {"type": "Point", "coordinates": [1079758.8330280173, 5733455.785]}, "type": "Feature", "properties": {"z_order": 0, "building": "yes", "amenity": "fuel", "place_id": "87001823", "display_name": "Q8, Via Cesare Correnti, Redona, Bergamo, BG, LOM, 24125, Italia, European Union", "name": "Q8", "brand": "q8", "way_area": 565.161, "lon": "9.69964397314046", "lat": "45.70660435", "osm_type": "way", "licence": "Data \u00a9 OpenStreetMap contributors, ODbL 1.0. http://www.openstreetmap.org/copyright", "osm_id": "158229989", "operator": "Q8", "address": {"city": "Bergamo", "country": "Italia", "county": "BG", "suburb": "Redona", "state": "LOM", "postcode": "24125", "country_code": "it", "fuel": "Q8", "continent": "European Union", "road": "Via Cesare Correnti"}}}, {"geometry": {"type": "Point", "coordinates": [1079778.996370247, 5730987.720000001]}, "type": "Feature", "properties": {"z_order": 0, "building": "yes", "amenity": "fuel", "place_id": "2448655951", "display_name": "Q8, Via Borgo Palazzo, Celadina, Bergamo, BG, LOM, 24125, Italia, European Union", "name": "Q8", "brand": "q8", "way_area": 243.302, "lon": "9.69981972883713", "lat": "45.6911157", "osm_type": "way", "licence": "Data \u00a9 OpenStreetMap contributors, ODbL 1.0. http://www.openstreetmap.org/copyright", "osm_id": "204574053", "operator": "Q8", "address": {"city": "Bergamo", "country": "Italia", "county": "BG", "suburb": "Celadina", "state": "LOM", "postcode": "24125", "country_code": "it", "fuel": "Q8", "continent": "European Union", "road": "Via Borgo Palazzo"}}}, {"geometry": {"type": "Point", "coordinates": [1079948.2114397148, 5734134.025]}, "type": "Feature", "properties": {"z_order": 10, "building": "roof", "amenity": "fuel", "place_id": "72648221", "display_name": "Tamoil, Via Martinella, Redona, Bergamo, BG, LOM, 24125, Italia, European Union", "name": "Tamoil", "brand": "Tamoil", "way_area": 333.632, "lon": "9.70133985", "layer": "1", "lat": "45.71085525", "osm_type": "way", "licence": "Data \u00a9 OpenStreetMap contributors, ODbL 1.0. http://www.openstreetmap.org/copyright", "osm_id": "115757604", "operator": "Tamoil", "address": {"city": "Bergamo", "country": "Italia", "county": "BG", "suburb": "Redona", "state": "LOM", "postcode": "24125", "country_code": "it", "fuel": "Tamoil", "continent": "European Union", "road": "Via Martinella"}}}, {"geometry": {"type": "Point", "coordinates": [1079963.6913482817, 5734143.48]}, "type": "Feature", "properties": {"z_order": 0, "building": "yes", "amenity": "fuel", "place_id": "70907467", "display_name": "Tamoil, Via Martinella, Redona, Bergamo, BG, LOM, 24125, Italia, European Union", "name": "Tamoil", "brand": "Tamoil", "way_area": 466.391, "lon": "9.70147758350833", "lat": "45.7108996939239", "osm_type": "way", "licence": "Data \u00a9 OpenStreetMap contributors, ODbL 1.0. http://www.openstreetmap.org/copyright", "osm_id": "115757608", "operator": "Tamoil", "address": {"city": "Bergamo", "country": "Italia", "county": "BG", "suburb": "Redona", "state": "LOM", "postcode": "24125", "country_code": "it", "fuel": "Tamoil", "continent": "European Union", "road": "Via Martinella"}}}, {"geometry": {"type": "Point", "coordinates": [1080031.646421605, 5733811.725]}, "type": "Feature", "properties": {"z_order": 10, "building": "roof", "amenity": "fuel", "place_id": "86902258", "display_name": "Esso, Via Cesare Correnti, Redona, Bergamo, BG, LOM, 24125, Italia, European Union", "name": "Esso", "brand": "Esso", "way_area": 714.451, "lon": "9.70205754598148", "layer": "1", "lat": "45.7088073", "osm_type": "way", "licence": "Data \u00a9 OpenStreetMap contributors, ODbL 1.0. http://www.openstreetmap.org/copyright", "osm_id": "158229987", "operator": "Esso", "address": {"city": "Bergamo", "country": "Italia", "county": "BG", "suburb": "Redona", "state": "LOM", "postcode": "24125", "country_code": "it", "fuel": "Esso", "continent": "European Union", "road": "Via Cesare Correnti"}}}, {"geometry": {"type": "Point", "coordinates": [1080043.8620743551, 5733791.305]}, "type": "Feature", "properties": {"z_order": 0, "building": "yes", "amenity": "fuel", "place_id": "87528871", "display_name": "Esso, Via Cesare Correnti, Redona, Bergamo, BG, LOM, 24125, Italia, European Union", "name": "Esso", "brand": "Esso", "way_area": 183.702, "lon": "9.70219904413661", "lat": "45.70870535", "osm_type": "way", "licence": "Data \u00a9 OpenStreetMap contributors, ODbL 1.0. http://www.openstreetmap.org/copyright", "osm_id": "158229986", "operator": "Esso", "address": {"city": "Bergamo", "country": "Italia", "county": "BG", "suburb": "Redona", "state": "LOM", "postcode": "24125", "country_code": "it", "fuel": "Esso", "continent": "European Union", "road": "Via Cesare Correnti"}}}, {"geometry": {"type": "Point", "coordinates": [1080055.1399999997, 5730856.395]}, "type": "Feature", "properties": {"z_order": 0, "building": "yes", "amenity": "fuel", "place_id": "2448655950", "display_name": "Agip, Via Borgo Palazzo, Celadina, Bergamo, BG, LOM, 24125, Italia, European Union", "name": "Agip", "brand": "Agip", "way_area": 501.4, "lon": "9.70230039128306", "lat": "45.6902917", "osm_type": "way", "licence": "Data \u00a9 OpenStreetMap contributors, ODbL 1.0. http://www.openstreetmap.org/copyright", "osm_id": "204574052", "operator": "Agip", "address": {"city": "Bergamo", "country": "Italia", "county": "BG", "suburb": "Celadina", "state": "LOM", "postcode": "24125", "country_code": "it", "fuel": "Agip", "continent": "European Union", "road": "Via Borgo Palazzo"}}}, {"geometry": {"type": "Point", "coordinates": [1081032.0263516577, 5730533.835]}, "type": "Feature", "properties": {"z_order": 10, "building": "roof", "amenity": "fuel", "place_id": "77378315", "display_name": "IP, Via Borgo Palazzo, Celadina, Bergamo, BG, LOM, 24068, Italia, European Union", "name": "IP", "brand": "ip", "way_area": 307.101, "lon": "9.71107595108744", "layer": "1", "lat": "45.6882676337506", "osm_type": "way", "licence": "Data \u00a9 OpenStreetMap contributors, ODbL 1.0. http://www.openstreetmap.org/copyright", "osm_id": "129390197", "operator": "IP", "address": {"city": "Bergamo", "country": "Italia", "county": "BG", "suburb": "Celadina", "state": "LOM", "postcode": "24068", "country_code": "it", "fuel": "IP", "continent": "European Union", "road": "Via Borgo Palazzo"}}}, {"geometry": {"type": "Point", "coordinates": [1081750.7934269416, 5728080.695]}, "type": "Feature", "properties": {"z_order": 0, "building": "yes", "amenity": "fuel", "place_id": "59482581", "display_name": "Esso, SPexSS671, Seriate, BG, LOM, 24068, Italia", "name": "Esso", "brand": "Esso", "way_area": 1084.27, "lon": "9.71756905793099", "lat": "45.672878064947", "osm_type": "way", "licence": "Data \u00a9 OpenStreetMap contributors, ODbL 1.0. http://www.openstreetmap.org/copyright", "osm_id": "80591412", "operator": "Esso", "address": {"city": "Seriate", "country": "Italia", "county": "BG", "state": "LOM", "postcode": "24068", "country_code": "it", "fuel": "Esso", "road": "SPexSS671"}}}, {"geometry": {"type": "Point", "coordinates": [1081849.2909299394, 5722732.59]}, "type": "Feature", "properties": {"z_order": 0, "amenity": "fuel", "place_id": "2466410530", "display_name": "SS42, Grassobbio, BG, LOM, 24050, Italia, European Union", "way_area": 963.774, "lon": "9.7173263", "osm_type": "way", "licence": "Data \u00a9 OpenStreetMap contributors, ODbL 1.0. http://www.openstreetmap.org/copyright", "osm_id": "182066413", "lat": "45.6385981", "address": {"city": "Grassobbio", "country": "Italia", "county": "BG", "state": "LOM", "postcode": "24050", "country_code": "it", "continent": "European Union", "road": "SS42"}}}, {"geometry": {"type": "Point", "coordinates": [1081869.5799140295, 5722661.52]}, "type": "Feature", "properties": {"z_order": 0, "amenity": "fuel", "place_id": "2466410530", "display_name": "SS42, Grassobbio, BG, LOM, 24050, Italia, European Union", "way_area": 1009.57, "lon": "9.7173263", "osm_type": "way", "licence": "Data \u00a9 OpenStreetMap contributors, ODbL 1.0. http://www.openstreetmap.org/copyright", "osm_id": "182066413", "lat": "45.6385981", "address": {"city": "Grassobbio", "country": "Italia", "county": "BG", "state": "LOM", "postcode": "24050", "country_code": "it", "continent": "European Union", "road": "SS42"}}}, {"geometry": {"type": "Point", "coordinates": [1082430.5814876128, 5733329.725]}, "type": "Feature", "properties": {"z_order": -10, "building": "roof", "amenity": "fuel", "place_id": "2446690779", "display_name": "Corso Europa, Scanzorosciate, BG, LOM, 24068, Italia, European Union", "way_area": 334.639, "lon": "9.7237542", "layer": "-1", "osm_type": "way", "licence": "Data \u00a9 OpenStreetMap contributors, ODbL 1.0. http://www.openstreetmap.org/copyright", "osm_id": "25687724", "lat": "45.7056577", "address": {"city": "Scanzorosciate", "country": "Italia", "county": "BG", "state": "LOM", "postcode": "24068", "country_code": "it", "continent": "European Union", "road": "Corso Europa"}}}, {"geometry": {"type": "Point", "coordinates": [1082705.0499931374, 5730038.82]}, "type": "Feature", "properties": {"z_order": 10, "building": "roof", "amenity": "fuel", "place_id": "82026819", "display_name": "Esso, Via Molino Vecchio, Seriate, BG, LOM, 24068, Italia", "name": "Esso", "brand": "Esso", "way_area": 215.433, "lon": "9.72610497466263", "layer": "1", "lat": "45.6851611602272", "osm_type": "way", "licence": "Data \u00a9 OpenStreetMap contributors, ODbL 1.0. http://www.openstreetmap.org/copyright", "osm_id": "142229369", "operator": "Eni", "address": {"city": "Seriate", "country": "Italia", "county": "BG", "state": "LOM", "postcode": "24068", "country_code": "it", "fuel": "Esso", "road": "Via Molino Vecchio"}}}, {"geometry": {"type": "Point", "coordinates": [1083849.6216455696, 5726280.609999999]}, "type": "Feature", "properties": {"z_order": 0, "building": "yes", "amenity": "fuel", "place_id": "2446823594", "display_name": "Esso, SS42, Seriate, BG, LOM, 24068, Italia", "name": "Esso", "brand": "Esso", "way_area": 396.468, "lon": "9.73638894581729", "lat": "45.66158745", "osm_type": "way", "licence": "Data \u00a9 OpenStreetMap contributors, ODbL 1.0. http://www.openstreetmap.org/copyright", "osm_id": "202296444", "operator": "Esso", "address": {"city": "Seriate", "country": "Italia", "county": "BG", "state": "LOM", "postcode": "24068", "country_code": "it", "fuel": "Esso", "road": "SS42"}}}, {"geometry": {"type": "Point", "coordinates": [1083871.5214600908, 5726279.23]}, "type": "Feature", "properties": {"z_order": 10, "building": "roof", "amenity": "fuel", "place_id": "2446823593", "display_name": "Esso, SS42, Seriate, BG, LOM, 24068, Italia", "name": "Esso", "brand": "Esso", "way_area": 654.901, "lon": "9.73658361894298", "layer": "1", "lat": "45.66156305", "osm_type": "way", "licence": "Data \u00a9 OpenStreetMap contributors, ODbL 1.0. http://www.openstreetmap.org/copyright", "osm_id": "202296443", "operator": "Esso", "address": {"city": "Seriate", "country": "Italia", "county": "BG", "state": "LOM", "postcode": "24068", "country_code": "it", "fuel": "Esso", "road": "SS42"}}}, {"geometry": {"type": "Point", "coordinates": [1084532.0407289332, 5729354.045]}, "type": "Feature", "properties": {"z_order": 10, "building": "roof", "amenity": "fuel", "place_id": "2436110227", "display_name": "Shell, Via Stella Alpina, Seriate, BG, LOM, 24068, Italia", "name": "Shell", "brand": "Shell", "way_area": 519.714, "lon": "9.74251709875455", "layer": "1", "lat": "45.6808635846942", "osm_type": "way", "licence": "Data \u00a9 OpenStreetMap contributors, ODbL 1.0. http://www.openstreetmap.org/copyright", "osm_id": "188644622", "operator": "Shell", "address": {"city": "Seriate", "country": "Italia", "county": "BG", "state": "LOM", "postcode": "24068", "country_code": "it", "fuel": "Shell", "road": "Via Stella Alpina"}}}, {"geometry": {"type": "Point", "coordinates": [1065190.05, 5729496.61]}, "type": "Feature", "properties": {"amenity": "fuel", "display_name": "Tamoil, Via Milano, Bonate Sopra, BG, LOM, 24035, Italia, European Union", "name": "Tamoil", "brand": "tamoil", "place_id": "612908", "lon": "9.568765", "lat": "45.6817583", "osm_type": "node", "licence": "Data \u00a9 OpenStreetMap contributors, ODbL 1.0. http://www.openstreetmap.org/copyright", "osm_id": "227615306", "operator": "Tamoil", "address": {"city": "Bonate Sopra", "country": "Italia", "county": "BG", "state": "LOM", "postcode": "24035", "country_code": "it", "fuel": "Tamoil", "continent": "European Union", "road": "Via Milano"}}}, {"geometry": {"type": "Point", "coordinates": [1065450.39, 5733215.54]}, "type": "Feature", "properties": {"amenity": "fuel", "display_name": "Shell, Strada Provinciale ex Strada Statale 342 Briantea, Ponte San Pietro, BG, LOM, 24030, Italia", "name": "Shell", "brand": "Shell", "place_id": "610042", "lon": "9.5711037", "lat": "45.7050935", "osm_type": "node", "licence": "Data \u00a9 OpenStreetMap contributors, ODbL 1.0. http://www.openstreetmap.org/copyright", "osm_id": "227679103", "operator": "Shell", "address": {"city": "Ponte San Pietro", "country": "Italia", "county": "BG", "state": "LOM", "postcode": "24030", "country_code": "it", "fuel": "Shell", "road": "Strada Provinciale ex Strada Statale 342 Briantea"}}}, {"geometry": {"type": "Point", "coordinates": [1065729.95, 5731240.19]}, "type": "Feature", "properties": {"amenity": "fuel", "display_name": "Agip, Via Vittorio Veneto, Presezzo, BG, LOM, 24035, Italia, European Union", "name": "Agip", "brand": "Agip", "place_id": "503186", "lon": "9.573615", "lat": "45.6927", "osm_type": "node", "licence": "Data \u00a9 OpenStreetMap contributors, ODbL 1.0. http://www.openstreetmap.org/copyright", "osm_id": "226999766", "operator": "Agip", "address": {"city": "Presezzo", "country": "Italia", "county": "BG", "state": "LOM", "postcode": "24035", "country_code": "it", "fuel": "Agip", "continent": "European Union", "road": "Via Vittorio Veneto"}}}, {"geometry": {"type": "Point", "coordinates": [1066687.29, 5734330.71]}, "type": "Feature", "properties": {"amenity": "fuel", "display_name": "Shell, Via Bruno Locatelli, Brembate di Sopra, BG, LOM, 24035, Italia, European Union", "name": "Shell", "brand": "Shell", "place_id": "605447", "lon": "9.582215", "lat": "45.712089", "osm_type": "node", "licence": "Data \u00a9 OpenStreetMap contributors, ODbL 1.0. http://www.openstreetmap.org/copyright", "osm_id": "227677887", "operator": "Shell", "address": {"city": "Brembate di Sopra", "country": "Italia", "county": "BG", "state": "LOM", "postcode": "24035", "country_code": "it", "fuel": "Shell", "continent": "European Union", "road": "Via Bruno Locatelli"}}}, {"geometry": {"type": "Point", "coordinates": [1066815.53, 5736815.67]}, "type": "Feature", "properties": {"amenity": "fuel", "display_name": "Shell, SP173, Brembate di Sopra, BG, LOM, 24031, Italia, European Union", "name": "Shell", "brand": "Shell", "place_id": "610022", "lon": "9.583367", "lat": "45.727674", "osm_type": "node", "licence": "Data \u00a9 OpenStreetMap contributors, ODbL 1.0. http://www.openstreetmap.org/copyright", "osm_id": "227677893", "operator": "Shell", "address": {"city": "Brembate di Sopra", "country": "Italia", "county": "BG", "state": "LOM", "postcode": "24031", "country_code": "it", "fuel": "Shell", "continent": "European Union", "road": "SP173"}}}, {"geometry": {"type": "Point", "coordinates": [1066909.71, 5734224.38]}, "type": "Feature", "properties": {"amenity": "fuel", "display_name": "Shell, Via Malpensata, Brembate di Sopra, BG, LOM, 24035, Italia, European Union", "name": "Shell", "brand": "Shell", "place_id": "596904", "lon": "9.584213", "lat": "45.711422", "osm_type": "node", "licence": "Data \u00a9 OpenStreetMap contributors, ODbL 1.0. http://www.openstreetmap.org/copyright", "osm_id": "227677889", "operator": "Shell", "address": {"city": "Brembate di Sopra", "country": "Italia", "county": "BG", "state": "LOM", "postcode": "24035", "country_code": "it", "fuel": "Shell", "continent": "European Union", "road": "Via Malpensata"}}}, {"geometry": {"type": "Point", "coordinates": [1068468.44, 5721610.03]}, "type": "Feature", "properties": {"amenity": "fuel", "display_name": "Brembo nord, Osio Sopra, BG, LOM, 24046, Italia, European Union", "name": "Esso", "brand": "Esso", "place_id": "2461443552", "lon": "9.59868720683781", "lat": "45.6326818", "osm_type": "way", "licence": "Data \u00a9 OpenStreetMap contributors, ODbL 1.0. http://www.openstreetmap.org/copyright", "osm_id": "26770054", "operator": "Esso", "address": {"city": "Osio Sopra", "country": "Italia", "county": "BG", "state": "LOM", "postcode": "24046", "country_code": "it", "services": "Brembo nord", "yes": "Brembo nord", "continent": "European Union"}}}, {"geometry": {"type": "Point", "coordinates": [1069213.13, 5732999.31]}, "type": "Feature", "properties": {"amenity": "fuel", "display_name": "Agip, SS470dir, Mozzo, BG, LOM, 24035, Italia", "name": "Agip", "brand": "Agip", "place_id": "621190", "lon": "9.604905", "lat": "45.703737", "osm_type": "node", "licence": "Data \u00a9 OpenStreetMap contributors, ODbL 1.0. http://www.openstreetmap.org/copyright", "osm_id": "229127395", "operator": "Agip", "address": {"city": "Mozzo", "country": "Italia", "county": "BG", "state": "LOM", "postcode": "24035", "country_code": "it", "fuel": "Agip", "road": "SS470dir"}}}, {"geometry": {"type": "Point", "coordinates": [1069656.18, 5738163.59]}, "type": "Feature", "properties": {"amenity": "fuel", "display_name": "Shell, Via Milano, Alm\u00e8, BG, LOM, 24011, Italia, European Union", "name": "Shell", "brand": "Shell", "place_id": "616520", "lon": "9.608885", "lat": "45.736126", "osm_type": "node", "licence": "Data \u00a9 OpenStreetMap contributors, ODbL 1.0. http://www.openstreetmap.org/copyright", "osm_id": "227677870", "operator": "Shell", "address": {"city": "Alm\u00e8", "country": "Italia", "county": "BG", "state": "LOM", "postcode": "24011", "country_code": "it", "fuel": "Shell", "continent": "European Union", "road": "Via Milano"}}}, {"geometry": {"type": "Point", "coordinates": [1069779.18, 5736072.64]}, "type": "Feature", "properties": {"amenity": "fuel", "display_name": "404, Via Roma, Valbrembo, BG, LOM, 24011, Italia, European Union", "place_id": "2441107246", "lon": "9.6093598", "osm_type": "node", "licence": "Data \u00a9 OpenStreetMap contributors, ODbL 1.0. http://www.openstreetmap.org/copyright", "osm_id": "2059962404", "lat": "45.7225268", "address": {"city": "Valbrembo", "country": "Italia", "county": "BG", "bus_stop": "404", "state": "LOM", "postcode": "24011", "country_code": "it", "continent": "European Union", "road": "Via Roma"}}}, {"geometry": {"type": "Point", "coordinates": [1069933.86, 5729133.02]}, "type": "Feature", "properties": {"amenity": "fuel", "display_name": "Esso, SS671, Treviolo, BG, LOM, 24048, Italia", "name": "Esso", "brand": "Esso", "place_id": "605236", "lon": "9.6113794", "lat": "45.6794764", "osm_type": "node", "licence": "Data \u00a9 OpenStreetMap contributors, ODbL 1.0. http://www.openstreetmap.org/copyright", "osm_id": "227628871", "operator": "Esso", "address": {"city": "Treviolo", "country": "Italia", "county": "BG", "state": "LOM", "postcode": "24048", "country_code": "it", "fuel": "Esso", "road": "SS671"}}}, {"geometry": {"type": "Point", "coordinates": [1070141.38, 5729130.84]}, "type": "Feature", "properties": {"shop": "yes", "amenity": "fuel", "display_name": "Eni, SS671, Treviolo, BG, LOM, 24048, Italia", "name": "Eni", "brand": "Eni", "place_id": "3546977", "lon": "9.6132436", "osm_type": "node", "licence": "Data \u00a9 OpenStreetMap contributors, ODbL 1.0. http://www.openstreetmap.org/copyright", "osm_id": "367737719", "lat": "45.6794627", "address": {"city": "Treviolo", "country": "Italia", "county": "BG", "state": "LOM", "postcode": "24048", "country_code": "it", "fuel": "Eni", "road": "SS671"}}}, {"geometry": {"type": "Point", "coordinates": [1070169.46, 5729144.77]}, "type": "Feature", "properties": {"amenity": "fuel", "display_name": "Agip, SS671, Treviolo, BG, LOM, 24048, Italia", "name": "Agip", "brand": "Agip", "place_id": "614945", "lon": "9.6134958", "lat": "45.6795501", "osm_type": "node", "licence": "Data \u00a9 OpenStreetMap contributors, ODbL 1.0. http://www.openstreetmap.org/copyright", "osm_id": "227001340", "operator": "Agip", "address": {"city": "Treviolo", "country": "Italia", "county": "BG", "state": "LOM", "postcode": "24048", "country_code": "it", "fuel": "Agip", "road": "SS671"}}}, {"geometry": {"type": "Point", "coordinates": [1070314.3, 5723430.28]}, "type": "Feature", "properties": {"amenity": "fuel", "display_name": "Erg, SS525, Dalmine, BG, LOM, 24048, Italia, European Union", "name": "Erg", "brand": "erg", "place_id": "615796", "lon": "9.614797", "lat": "45.643673", "osm_type": "node", "licence": "Data \u00a9 OpenStreetMap contributors, ODbL 1.0. http://www.openstreetmap.org/copyright", "osm_id": "227529318", "operator": "Erg", "address": {"city": "Dalmine", "country": "Italia", "county": "BG", "state": "LOM", "postcode": "24048", "country_code": "it", "fuel": "Erg", "continent": "European Union", "road": "SS525"}}}, {"geometry": {"type": "Point", "coordinates": [1070434.92, 5723847.44]}, "type": "Feature", "properties": {"amenity": "fuel", "display_name": "Agip, Via Evaristo Baschenis, Dalmine, BG, LOM, 24048, Italia, European Union", "name": "Agip", "brand": "Agip", "place_id": "503194", "lon": "9.6158805", "lat": "45.6462928", "osm_type": "node", "licence": "Data \u00a9 OpenStreetMap contributors, ODbL 1.0. http://www.openstreetmap.org/copyright", "osm_id": "227000998", "operator": "Agip", "address": {"city": "Dalmine", "country": "Italia", "county": "BG", "state": "LOM", "postcode": "24048", "country_code": "it", "fuel": "Agip", "continent": "European Union", "road": "Via Evaristo Baschenis"}}}, {"geometry": {"type": "Point", "coordinates": [1070767.23, 5724301.26]}, "type": "Feature", "properties": {"amenity": "fuel", "display_name": "Eni, SS525, Dalmine, BG, LOM, 24048, Italia, European Union", "name": "Eni", "brand": "Eni", "place_id": "2440770070", "lon": "9.6188657", "lat": "45.6491427", "osm_type": "node", "licence": "Data \u00a9 OpenStreetMap contributors, ODbL 1.0. http://www.openstreetmap.org/copyright", "osm_id": "2054407689", "operator": "Eni", "address": {"city": "Dalmine", "country": "Italia", "county": "BG", "state": "LOM", "postcode": "24048", "country_code": "it", "fuel": "Eni", "continent": "European Union", "road": "SS525"}}}, {"geometry": {"type": "Point", "coordinates": [1071023.66, 5738712.9]}, "type": "Feature", "properties": {"amenity": "fuel", "display_name": "Shell, Via Antonio Locatelli, Alm\u00e8, BG, LOM, 24011, Italia, European Union", "name": "Shell", "brand": "Shell", "place_id": "504443", "lon": "9.6211692", "lat": "45.73957", "osm_type": "node", "licence": "Data \u00a9 OpenStreetMap contributors, ODbL 1.0. http://www.openstreetmap.org/copyright", "osm_id": "227677872", "operator": "Shell", "address": {"city": "Alm\u00e8", "country": "Italia", "county": "BG", "state": "LOM", "postcode": "24011", "country_code": "it", "fuel": "Shell", "continent": "European Union", "road": "Via Antonio Locatelli"}}}, {"geometry": {"type": "Point", "coordinates": [1071983.1, 5737831.76]}, "type": "Feature", "properties": {"amenity": "fuel", "display_name": "Gotti Gomme, Via Guglielmo Marconi, Sorisole, BG, LOM, 24018, Italia", "brand": "Tamoil", "place_id": "2465314560", "lon": "9.6298899", "osm_type": "node", "licence": "Data \u00a9 OpenStreetMap contributors, ODbL 1.0. http://www.openstreetmap.org/copyright", "osm_id": "2333269406", "lat": "45.7342251", "address": {"city": "Sorisole", "country": "Italia", "county": "BG", "state": "LOM", "postcode": "24018", "country_code": "it", "car_repair": "Gotti Gomme", "road": "Via Guglielmo Marconi"}}}, {"geometry": {"type": "Point", "coordinates": [1072163.1, 5728561.14]}, "type": "Feature", "properties": {"amenity": "fuel", "display_name": "Shell, Viale Europa, Treviolo, BG, LOM, 24048, Italia, European Union", "name": "Shell", "brand": "Shell", "place_id": "596929", "lon": "9.631405", "lat": "45.675887", "osm_type": "node", "licence": "Data \u00a9 OpenStreetMap contributors, ODbL 1.0. http://www.openstreetmap.org/copyright", "osm_id": "227679715", "operator": "Shell", "address": {"city": "Treviolo", "country": "Italia", "county": "BG", "state": "LOM", "postcode": "24048", "country_code": "it", "fuel": "Shell", "continent": "European Union", "road": "Viale Europa"}}}, {"geometry": {"type": "Point", "coordinates": [1072332.64, 5724667.57]}, "type": "Feature", "properties": {"amenity": "fuel", "display_name": "Agip, Via Arrigo Boito, Stezzano, BG, LOM, 24048, Italia", "name": "Agip", "brand": "Agip", "place_id": "614397", "lon": "9.632928", "lat": "45.651443", "osm_type": "node", "licence": "Data \u00a9 OpenStreetMap contributors, ODbL 1.0. http://www.openstreetmap.org/copyright", "osm_id": "226902920", "operator": "Agip", "address": {"city": "Stezzano", "country": "Italia", "county": "BG", "state": "LOM", "postcode": "24048", "country_code": "it", "fuel": "Agip", "road": "Via Arrigo Boito"}}}, {"geometry": {"type": "Point", "coordinates": [1073135.25, 5727708.34]}, "type": "Feature", "properties": {"amenity": "fuel", "display_name": "Total, Via per Grumello, Colognola, Bergamo, BG, LOM, 24127, Italia, European Union", "name": "Total", "brand": "Total", "place_id": "572277", "lon": "9.640138", "lat": "45.670534", "osm_type": "node", "licence": "Data \u00a9 OpenStreetMap contributors, ODbL 1.0. http://www.openstreetmap.org/copyright", "osm_id": "227792675", "operator": "Total", "address": {"city": "Bergamo", "country": "Italia", "county": "BG", "suburb": "Colognola", "state": "LOM", "postcode": "24127", "country_code": "it", "fuel": "Total", "continent": "European Union", "road": "Via per Grumello"}}}, {"geometry": {"type": "Point", "coordinates": [1073488.8, 5728208.73]}, "type": "Feature", "properties": {"amenity": "fuel", "display_name": "IP, Via per Grumello, Colognola, Bergamo, BG, LOM, 24127, Italia, European Union", "name": "IP", "brand": "ip", "place_id": "599079", "lon": "9.643314", "lat": "45.673675", "osm_type": "node", "licence": "Data \u00a9 OpenStreetMap contributors, ODbL 1.0. http://www.openstreetmap.org/copyright", "osm_id": "227529322", "operator": "IP", "address": {"city": "Bergamo", "country": "Italia", "county": "BG", "suburb": "Colognola", "state": "LOM", "postcode": "24127", "country_code": "it", "fuel": "IP", "continent": "European Union", "road": "Via per Grumello"}}}, {"geometry": {"type": "Point", "coordinates": [1073598.63, 5728250.63]}, "type": "Feature", "properties": {"amenity": "fuel", "display_name": "Tamoil, Via per Grumello, Colognola, Bergamo, BG, LOM, 24127, Italia, European Union", "name": "Tamoil", "brand": "tamoil", "place_id": "614801", "lon": "9.6443006", "lat": "45.673938", "osm_type": "node", "licence": "Data \u00a9 OpenStreetMap contributors, ODbL 1.0. http://www.openstreetmap.org/copyright", "osm_id": "226949783", "operator": "Tamoil", "address": {"city": "Bergamo", "country": "Italia", "county": "BG", "suburb": "Colognola", "state": "LOM", "postcode": "24127", "country_code": "it", "fuel": "Tamoil", "continent": "European Union", "road": "Via per Grumello"}}}, {"geometry": {"type": "Point", "coordinates": [1074265.87, 5730350.31]}, "type": "Feature", "properties": {"amenity": "fuel", "display_name": "Shell, Via Giovanni Finazzi, San Tommaso, Bergamo, BG, LOM, 24128, Italia, European Union", "name": "Shell", "brand": "Shell", "place_id": "605290", "lon": "9.6502945", "lat": "45.6871159", "osm_type": "node", "licence": "Data \u00a9 OpenStreetMap contributors, ODbL 1.0. http://www.openstreetmap.org/copyright", "osm_id": "227654215", "operator": "Shell", "address": {"city": "Bergamo", "country": "Italia", "county": "BG", "suburb": "San Tommaso", "state": "LOM", "postcode": "24128", "country_code": "it", "fuel": "Shell", "continent": "European Union", "road": "Via Giovanni Finazzi"}}}, {"geometry": {"type": "Point", "coordinates": [1074545.84, 5724932.7]}, "type": "Feature", "properties": {"amenity": "fuel", "display_name": "Api, Via Santuario, Stezzano, BG, LOM, 24126, Italia, European Union", "name": "Api", "place_id": "3824920", "lon": "9.6528095", "lat": "45.6531078", "osm_type": "node", "licence": "Data \u00a9 OpenStreetMap contributors, ODbL 1.0. http://www.openstreetmap.org/copyright", "osm_id": "393712711", "operator": "Api", "address": {"city": "Stezzano", "country": "Italia", "county": "BG", "state": "LOM", "postcode": "24126", "country_code": "it", "fuel": "Api", "continent": "European Union", "road": "Via Santuario"}}}, {"geometry": {"type": "Point", "coordinates": [1075003.19, 5726041.06]}, "type": "Feature", "properties": {"amenity": "fuel", "display_name": "Shell, Via Stezzano, Colognola, Bergamo, BG, LOM, 24126, Italia, European Union", "name": "Shell", "brand": "Shell", "place_id": "600758", "lon": "9.656918", "lat": "45.660067", "osm_type": "node", "licence": "Data \u00a9 OpenStreetMap contributors, ODbL 1.0. http://www.openstreetmap.org/copyright", "osm_id": "228167576", "operator": "Shell", "address": {"city": "Bergamo", "country": "Italia", "county": "BG", "suburb": "Colognola", "state": "LOM", "postcode": "24126", "country_code": "it", "fuel": "Shell", "continent": "European Union", "road": "Via Stezzano"}}}, {"geometry": {"type": "Point", "coordinates": [1075366.32, 5727249.72]}, "type": "Feature", "properties": {"amenity": "fuel", "display_name": "Agip, Via Stezzano, Colognola, Bergamo, BG, LOM, 24126, Italia, European Union", "name": "Agip", "brand": "Agip", "place_id": "612376", "lon": "9.66018", "lat": "45.667655", "osm_type": "node", "licence": "Data \u00a9 OpenStreetMap contributors, ODbL 1.0. http://www.openstreetmap.org/copyright", "osm_id": "229127878", "operator": "Agip", "address": {"city": "Bergamo", "country": "Italia", "county": "BG", "suburb": "Colognola", "state": "LOM", "postcode": "24126", "country_code": "it", "fuel": "Agip", "continent": "European Union", "road": "Via Stezzano"}}}, {"geometry": {"type": "Point", "coordinates": [1075449.92, 5730500.76]}, "type": "Feature", "properties": {"amenity": "fuel", "display_name": "Indipend., Via Giosu\u00e8 Carducci, Malpensata, Bergamo, BG, LOM, 24128, Italia, European Union", "name": "Indipend.", "brand": "indipend.", "place_id": "598175", "lon": "9.660931", "lat": "45.68806", "osm_type": "node", "licence": "Data \u00a9 OpenStreetMap contributors, ODbL 1.0. http://www.openstreetmap.org/copyright", "osm_id": "227826587", "operator": "Indipend.", "address": {"city": "Bergamo", "country": "Italia", "county": "BG", "suburb": "Malpensata", "state": "LOM", "postcode": "24128", "country_code": "it", "fuel": "Indipend.", "continent": "European Union", "road": "Via Giosu\u00e8 Carducci"}}}, {"geometry": {"type": "Point", "coordinates": [1075728.28, 5735108.43]}, "type": "Feature", "properties": {"amenity": "fuel", "display_name": "Api, Via Pietro Ruggeri da Stabello, Valtesse, Bergamo, BG, LOM, 24129, Italia, European Union", "name": "Api", "brand": "Api", "place_id": "2443198776", "lon": "9.6634316", "lat": "45.7169671", "osm_type": "node", "licence": "Data \u00a9 OpenStreetMap contributors, ODbL 1.0. http://www.openstreetmap.org/copyright", "osm_id": "2082844367", "operator": "Api", "address": {"city": "Bergamo", "country": "Italia", "county": "BG", "suburb": "Valtesse", "state": "LOM", "postcode": "24129", "country_code": "it", "fuel": "Api", "continent": "European Union", "road": "Via Pietro Ruggeri da Stabello"}}}, {"geometry": {"type": "Point", "coordinates": [1076254.88, 5730248.47]}, "type": "Feature", "properties": {"amenity": "fuel", "display_name": "Agip, Via Autostrada, Malpensata, Bergamo, BG, LOM, 24121, Italia, European Union", "name": "Agip", "brand": "Agip", "place_id": "616031", "lon": "9.6681621", "lat": "45.6864768", "osm_type": "node", "licence": "Data \u00a9 OpenStreetMap contributors, ODbL 1.0. http://www.openstreetmap.org/copyright", "osm_id": "227589914", "operator": "Agip", "address": {"city": "Bergamo", "country": "Italia", "county": "BG", "suburb": "Malpensata", "state": "LOM", "postcode": "24121", "country_code": "it", "fuel": "Agip", "continent": "European Union", "road": "Via Autostrada"}}}, {"geometry": {"type": "Point", "coordinates": [1076523.58, 5734308.23]}, "type": "Feature", "properties": {"amenity": "fuel", "display_name": "Tamoil, Via Cristoforo Baioni, Valtesse, Bergamo, BG, LOM, 24123, Italia, European Union", "name": "Tamoil", "brand": "tamoil", "place_id": "614995", "lon": "9.6705759", "lat": "45.711948", "osm_type": "node", "licence": "Data \u00a9 OpenStreetMap contributors, ODbL 1.0. http://www.openstreetmap.org/copyright", "osm_id": "229133358", "operator": "Tamoil", "address": {"city": "Bergamo", "country": "Italia", "county": "BG", "suburb": "Valtesse", "state": "LOM", "postcode": "24123", "country_code": "it", "fuel": "Tamoil", "continent": "European Union", "road": "Via Cristoforo Baioni"}}}, {"geometry": {"type": "Point", "coordinates": [1076773.73, 5730016.06]}, "type": "Feature", "properties": {"addr:housenumber": "4", "amenity": "fuel", "display_name": "TotalErg, 4, Via per Zanica, Malpensata, Bergamo, BG, LOM, 24126, Italia, European Union", "name": "TotalErg", "brand": "TotalErg", "place_id": "616159", "lon": "9.672823", "lat": "45.6850183", "osm_type": "node", "licence": "Data \u00a9 OpenStreetMap contributors, ODbL 1.0. http://www.openstreetmap.org/copyright", "osm_id": "227592128", "operator": "TotalErg", "address": {"city": "Bergamo", "house_number": "4", "country": "Italia", "county": "BG", "suburb": "Malpensata", "state": "LOM", "postcode": "24126", "country_code": "it", "fuel": "TotalErg", "continent": "European Union", "road": "Via per Zanica"}}}, {"geometry": {"type": "Point", "coordinates": [1076796.59, 5729655.56]}, "type": "Feature", "properties": {"addr:housenumber": "31", "amenity": "fuel", "display_name": "Api, 31, Via per Zanica, Malpensata, Bergamo, BG, LOM, 24126, Italia, European Union", "name": "Api", "brand": "api", "place_id": "504083", "lon": "9.6730284", "lat": "45.6827559", "osm_type": "node", "licence": "Data \u00a9 OpenStreetMap contributors, ODbL 1.0. http://www.openstreetmap.org/copyright", "osm_id": "227588134", "operator": "Api", "address": {"city": "Bergamo", "house_number": "31", "country": "Italia", "county": "BG", "suburb": "Malpensata", "state": "LOM", "postcode": "24126", "country_code": "it", "fuel": "Api", "continent": "European Union", "road": "Via per Zanica"}}}, {"geometry": {"type": "Point", "coordinates": [1077336.28, 5730565.79]}, "type": "Feature", "properties": {"amenity": "fuel", "display_name": "Tamoil, Via Mauro Gavazzeni, Malpensata, Bergamo, BG, LOM, 24121, Italia, European Union", "name": "Tamoil", "brand": "tamoil", "place_id": "2735224", "lon": "9.6778765", "lat": "45.6884681", "osm_type": "node", "licence": "Data \u00a9 OpenStreetMap contributors, ODbL 1.0. http://www.openstreetmap.org/copyright", "osm_id": "357194551", "operator": "Tamoil", "address": {"city": "Bergamo", "country": "Italia", "county": "BG", "suburb": "Malpensata", "state": "LOM", "postcode": "24121", "country_code": "it", "fuel": "Tamoil", "continent": "European Union", "road": "Via Mauro Gavazzeni"}}}, {"geometry": {"type": "Point", "coordinates": [1077408.97, 5733696.2]}, "type": "Feature", "properties": {"amenity": "fuel", "display_name": "IP, Via del Lazzaretto, Conca Fiorita, Bergamo, BG, LOM, 24123, Italia, European Union", "name": "IP", "place_id": "4919911", "lon": "9.6785295", "osm_type": "node", "licence": "Data \u00a9 OpenStreetMap contributors, ODbL 1.0. http://www.openstreetmap.org/copyright", "osm_id": "543398959", "lat": "45.7081088", "address": {"city": "Bergamo", "country": "Italia", "county": "BG", "suburb": "Conca Fiorita", "state": "LOM", "postcode": "24123", "country_code": "it", "fuel": "IP", "continent": "European Union", "road": "Via del Lazzaretto"}}}, {"geometry": {"type": "Point", "coordinates": [1077525.58, 5726201.13]}, "type": "Feature", "properties": {"amenity": "fuel", "display_name": "Shell, Via Cremasca, Azzano San Paolo, BG, LOM, 24052, Italia, European Union", "name": "Shell", "brand": "Shell", "place_id": "612950", "lon": "9.679577", "lat": "45.661072", "osm_type": "node", "licence": "Data \u00a9 OpenStreetMap contributors, ODbL 1.0. http://www.openstreetmap.org/copyright", "osm_id": "227622170", "operator": "Shell", "address": {"city": "Azzano San Paolo", "country": "Italia", "county": "BG", "state": "LOM", "postcode": "24052", "country_code": "it", "fuel": "Shell", "continent": "European Union", "road": "Via Cremasca"}}}, {"geometry": {"type": "Point", "coordinates": [1077796.08, 5731703.55]}, "type": "Feature", "properties": {"amenity": "fuel", "display_name": "Api, Via Angelo Maj, Borgo Palazzo, Bergamo, BG, LOM, 24124, Italia, European Union", "name": "Api", "brand": "api", "place_id": "615674", "lon": "9.6820069", "lat": "45.6956074", "osm_type": "node", "licence": "Data \u00a9 OpenStreetMap contributors, ODbL 1.0. http://www.openstreetmap.org/copyright", "osm_id": "227529315", "operator": "Api", "address": {"city": "Bergamo", "country": "Italia", "county": "BG", "suburb": "Borgo Palazzo", "state": "LOM", "postcode": "24124", "country_code": "it", "fuel": "Api", "continent": "European Union", "road": "Via Angelo Maj"}}}, {"geometry": {"type": "Point", "coordinates": [1077923.29, 5724217.32]}, "type": "Feature", "properties": {"amenity": "fuel", "display_name": "Agip, Via Cremasca, Azzano San Paolo, BG, LOM, 24052, Italia", "name": "Agip", "brand": "Agip", "place_id": "3351742", "lon": "9.6831497", "lat": "45.6486156", "osm_type": "node", "licence": "Data \u00a9 OpenStreetMap contributors, ODbL 1.0. http://www.openstreetmap.org/copyright", "osm_id": "363560806", "operator": "Agip", "address": {"city": "Azzano San Paolo", "country": "Italia", "county": "BG", "state": "LOM", "postcode": "24052", "country_code": "it", "fuel": "Agip", "road": "Via Cremasca"}}}, {"geometry": {"type": "Point", "coordinates": [1078020.06, 5732144.17]}, "type": "Feature", "properties": {"amenity": "fuel", "display_name": "IP, Via Ambrogio da Calepio, Borgo Palazzo, Bergamo, BG, LOM, 24124, Italia, European Union", "name": "IP", "brand": "ip", "place_id": "610714", "lon": "9.684019", "lat": "45.698372", "osm_type": "node", "licence": "Data \u00a9 OpenStreetMap contributors, ODbL 1.0. http://www.openstreetmap.org/copyright", "osm_id": "229127225", "operator": "IP", "address": {"city": "Bergamo", "country": "Italia", "county": "BG", "suburb": "Borgo Palazzo", "state": "LOM", "postcode": "24124", "country_code": "it", "fuel": "IP", "continent": "European Union", "road": "Via Ambrogio da Calepio"}}}, {"geometry": {"type": "Point", "coordinates": [1078065.82, 5731978.1]}, "type": "Feature", "properties": {"amenity": "fuel", "display_name": "Total, Via Vittore Ghislandi, Borgo Palazzo, Bergamo, BG, LOM, 24124, Italia, European Union", "name": "Total", "brand": "Total", "place_id": "601647", "lon": "9.68443", "lat": "45.69733", "osm_type": "node", "licence": "Data \u00a9 OpenStreetMap contributors, ODbL 1.0. http://www.openstreetmap.org/copyright", "osm_id": "227902937", "operator": "Total", "address": {"city": "Bergamo", "country": "Italia", "county": "BG", "suburb": "Borgo Palazzo", "state": "LOM", "postcode": "24124", "country_code": "it", "fuel": "Total", "continent": "European Union", "road": "Via Vittore Ghislandi"}}}, {"geometry": {"type": "Point", "coordinates": [1078224.95, 5730912.03]}, "type": "Feature", "properties": {"amenity": "fuel", "display_name": "Esso, Via Mauro Gavazzeni, Borgo Palazzo, Bergamo, BG, LOM, 24121, Italia, European Union", "name": "Esso", "brand": "Esso", "place_id": "597751", "lon": "9.6858595", "lat": "45.6906408", "osm_type": "node", "licence": "Data \u00a9 OpenStreetMap contributors, ODbL 1.0. http://www.openstreetmap.org/copyright", "osm_id": "226937390", "operator": "Esso", "address": {"city": "Bergamo", "country": "Italia", "county": "BG", "suburb": "Borgo Palazzo", "state": "LOM", "postcode": "24121", "country_code": "it", "fuel": "Esso", "continent": "European Union", "road": "Via Mauro Gavazzeni"}}}, {"geometry": {"type": "Point", "coordinates": [1079198.94, 5732070.06]}, "type": "Feature", "properties": {"amenity": "fuel", "display_name": "Esso, Circonvallazione delle Valli, Boccaleone, Bergamo, BG, LOM, 24125, Italia, European Union", "name": "Esso", "brand": "Esso", "place_id": "609583", "lon": "9.694609", "lat": "45.697907", "osm_type": "node", "licence": "Data \u00a9 OpenStreetMap contributors, ODbL 1.0. http://www.openstreetmap.org/copyright", "osm_id": "227748379", "operator": "Esso", "address": {"city": "Bergamo", "country": "Italia", "county": "BG", "suburb": "Boccaleone", "state": "LOM", "postcode": "24125", "country_code": "it", "fuel": "Esso", "continent": "European Union", "road": "Circonvallazione delle Valli"}}}, {"geometry": {"type": "Point", "coordinates": [1079535.96, 5734094.26]}, "type": "Feature", "properties": {"amenity": "fuel", "display_name": "Q8, Via Filippo Corridoni, Redona, Bergamo, BG, LOM, 24125, Italia, European Union", "name": "Q8", "brand": "q8", "place_id": "611673", "lon": "9.6976365", "lat": "45.7106058", "osm_type": "node", "licence": "Data \u00a9 OpenStreetMap contributors, ODbL 1.0. http://www.openstreetmap.org/copyright", "osm_id": "227911940", "operator": "Q8", "address": {"city": "Bergamo", "country": "Italia", "county": "BG", "suburb": "Redona", "state": "LOM", "postcode": "24125", "country_code": "it", "fuel": "Q8", "continent": "European Union", "road": "Via Filippo Corridoni"}}}, {"geometry": {"type": "Point", "coordinates": [1079570.3, 5731083.53]}, "type": "Feature", "properties": {"amenity": "fuel", "display_name": "Erg, Via Borgo Palazzo, Celadina, Bergamo, BG, LOM, 24125, Italia, European Union", "name": "Erg", "brand": "erg", "place_id": "570736", "lon": "9.697945", "lat": "45.691717", "osm_type": "node", "licence": "Data \u00a9 OpenStreetMap contributors, ODbL 1.0. http://www.openstreetmap.org/copyright", "osm_id": "227586843", "operator": "Erg", "address": {"city": "Bergamo", "country": "Italia", "county": "BG", "suburb": "Celadina", "state": "LOM", "postcode": "24125", "country_code": "it", "fuel": "Erg", "continent": "European Union", "road": "Via Borgo Palazzo"}}}, {"geometry": {"type": "Point", "coordinates": [1080281.5, 5729622.39]}, "type": "Feature", "properties": {"amenity": "fuel", "display_name": "Shell, Corso Roma, Seriate, BG, LOM, 24068, Italia, European Union", "name": "Shell", "brand": "Shell", "place_id": "617263", "lon": "9.7043338", "lat": "45.6825477", "osm_type": "node", "licence": "Data \u00a9 OpenStreetMap contributors, ODbL 1.0. http://www.openstreetmap.org/copyright", "osm_id": "227803655", "operator": "Shell", "address": {"city": "Seriate", "country": "Italia", "county": "BG", "state": "LOM", "postcode": "24068", "country_code": "it", "fuel": "Shell", "continent": "European Union", "road": "Corso Roma"}}}, {"geometry": {"type": "Point", "coordinates": [1080542.45, 5728866.88]}, "type": "Feature", "properties": {"amenity": "fuel", "display_name": "Tamoil, SPexSS671, Seriate, BG, LOM, 24068, Italia", "name": "Tamoil", "brand": "tamoil", "place_id": "612631", "lon": "9.706678", "lat": "45.677806", "osm_type": "node", "licence": "Data \u00a9 OpenStreetMap contributors, ODbL 1.0. http://www.openstreetmap.org/copyright", "osm_id": "227569095", "operator": "Tamoil", "address": {"city": "Seriate", "country": "Italia", "county": "BG", "state": "LOM", "postcode": "24068", "country_code": "it", "fuel": "Tamoil", "road": "SPexSS671"}}}, {"geometry": {"type": "Point", "coordinates": [1081105.73, 5735483.57]}, "type": "Feature", "properties": {"amenity": "fuel", "display_name": "Api, Via Guglielmo Marconi, Ranica, BG, LOM, 24125, Italia, European Union", "name": "Api", "brand": "api", "place_id": "598926", "lon": "9.711738", "lat": "45.71932", "osm_type": "node", "licence": "Data \u00a9 OpenStreetMap contributors, ODbL 1.0. http://www.openstreetmap.org/copyright", "osm_id": "227912222", "operator": "Api", "address": {"city": "Ranica", "country": "Italia", "county": "BG", "state": "LOM", "postcode": "24125", "country_code": "it", "fuel": "Api", "continent": "European Union", "road": "Via Guglielmo Marconi"}}}, {"geometry": {"type": "Point", "coordinates": [1081300.04, 5733126.4]}, "type": "Feature", "properties": {"amenity": "fuel", "display_name": "API, Via Don Emilio Mazza, Gorle, BG, LOM, 24125, Italia, European Union", "name": "API", "place_id": "2436035454", "lon": "9.7134835", "osm_type": "node", "licence": "Data \u00a9 OpenStreetMap contributors, ODbL 1.0. http://www.openstreetmap.org/copyright", "osm_id": "1991673127", "lat": "45.7045343", "address": {"city": "Gorle", "country": "Italia", "county": "BG", "state": "LOM", "postcode": "24125", "country_code": "it", "fuel": "API", "continent": "European Union", "road": "Via Don Emilio Mazza"}}}, {"geometry": {"type": "Point", "coordinates": [1081840.09, 5736265.04]}, "type": "Feature", "properties": {"amenity": "fuel", "display_name": "Shell, Via Guglielmo Marconi, Ranica, BG, LOM, 24125, Italia, European Union", "name": "Shell", "brand": "Shell", "place_id": "571339", "lon": "9.7183349", "lat": "45.724221", "osm_type": "node", "licence": "Data \u00a9 OpenStreetMap contributors, ODbL 1.0. http://www.openstreetmap.org/copyright", "osm_id": "227679309", "operator": "Shell", "address": {"city": "Ranica", "country": "Italia", "county": "BG", "state": "LOM", "postcode": "24125", "country_code": "it", "fuel": "Shell", "continent": "European Union", "road": "Via Guglielmo Marconi"}}}, {"geometry": {"type": "Point", "coordinates": [1081985.94, 5738464.64]}, "type": "Feature", "properties": {"amenity": "fuel", "display_name": "ATB, Via Europa, Alzano Lombardo, BG, LOM, 24022, Italia, European Union", "place_id": "2435951425", "lon": "9.7197373", "osm_type": "node", "licence": "Data \u00a9 OpenStreetMap contributors, ODbL 1.0. http://www.openstreetmap.org/copyright", "osm_id": "1991147873", "lat": "45.7382689", "address": {"city": "Alzano Lombardo", "country": "Italia", "county": "BG", "bus_stop": "ATB", "state": "LOM", "postcode": "24022", "country_code": "it", "continent": "European Union", "road": "Via Europa"}}}, {"geometry": {"type": "Point", "coordinates": [1082144.17, 5726016.48]}, "type": "Feature", "properties": {"amenity": "fuel", "display_name": "Shell, Via Guglielmo Marconi, Grassobbio, BG, LOM, 24068, Italia, European Union", "name": "Shell", "brand": "Shell", "place_id": "599979", "lon": "9.7210665", "lat": "45.6599127", "osm_type": "node", "licence": "Data \u00a9 OpenStreetMap contributors, ODbL 1.0. http://www.openstreetmap.org/copyright", "osm_id": "227678691", "operator": "Shell", "address": {"city": "Grassobbio", "country": "Italia", "county": "BG", "state": "LOM", "postcode": "24068", "country_code": "it", "fuel": "Shell", "continent": "European Union", "road": "Via Guglielmo Marconi"}}}, {"geometry": {"type": "Point", "coordinates": [1082515.79, 5737139.39]}, "type": "Feature", "properties": {"amenity": "fuel", "display_name": "Erg, Via Giuseppe Mazzini, Alzano Lombardo, BG, LOM, 24027, Italia", "name": "Erg", "brand": "erg", "place_id": "610172", "lon": "9.7244048", "lat": "45.729704", "osm_type": "node", "licence": "Data \u00a9 OpenStreetMap contributors, ODbL 1.0. http://www.openstreetmap.org/copyright", "osm_id": "227912092", "operator": "Erg", "address": {"city": "Alzano Lombardo", "country": "Italia", "county": "BG", "state": "LOM", "postcode": "24027", "country_code": "it", "fuel": "Erg", "road": "Via Giuseppe Mazzini"}}}, {"geometry": {"type": "Point", "coordinates": [1083938.26, 5726155.42]}, "type": "Feature", "properties": {"amenity": "fuel", "display_name": "Esso, SS42, Seriate, BG, LOM, 24068, Italia", "name": "Esso", "brand": "Esso", "place_id": "9628836", "lon": "9.7371831", "lat": "45.660785", "osm_type": "node", "licence": "Data \u00a9 OpenStreetMap contributors, ODbL 1.0. http://www.openstreetmap.org/copyright", "osm_id": "940148514", "operator": "Esso", "address": {"city": "Seriate", "country": "Italia", "county": "BG", "state": "LOM", "postcode": "24068", "country_code": "it", "fuel": "Esso", "road": "SS42"}}}, {"geometry": {"type": "Point", "coordinates": [1084372.03, 5729792.44]}, "type": "Feature", "properties": {"amenity": "fuel", "display_name": "Agip, Via Stella Alpina, Seriate, BG, LOM, 24068, Italia, European Union", "name": "Agip", "brand": "Agip", "place_id": "611423", "lon": "9.7410797", "lat": "45.6836149", "osm_type": "node", "licence": "Data \u00a9 OpenStreetMap contributors, ODbL 1.0. http://www.openstreetmap.org/copyright", "osm_id": "227001341", "operator": "Agip", "address": {"city": "Seriate", "country": "Italia", "county": "BG", "state": "LOM", "postcode": "24068", "country_code": "it", "fuel": "Agip", "continent": "European Union", "road": "Via Stella Alpina"}}}, {"geometry": {"type": "Point", "coordinates": [1084652.59, 5738644.31]}, "type": "Feature", "properties": {"amenity": "fuel", "display_name": "Api, Via Roma, Nembro, BG, LOM, 24027, Italia, European Union", "name": "Api", "brand": "api", "place_id": "618199", "lon": "9.7436", "lat": "45.73914", "osm_type": "node", "licence": "Data \u00a9 OpenStreetMap contributors, ODbL 1.0. http://www.openstreetmap.org/copyright", "osm_id": "227912085", "operator": "Api", "address": {"city": "Nembro", "country": "Italia", "county": "BG", "state": "LOM", "postcode": "24027", "country_code": "it", "fuel": "Api", "continent": "European Union", "road": "Via Roma"}}}, {"geometry": {"type": "Point", "coordinates": [1084783.96, 5738700.57]}, "type": "Feature", "properties": {"amenity": "fuel", "display_name": "IP, Via Roma, Nembro, BG, LOM, 24027, Italia, European Union", "name": "IP", "brand": "ip", "place_id": "582186", "lon": "9.7447801", "lat": "45.7394927", "osm_type": "node", "licence": "Data \u00a9 OpenStreetMap contributors, ODbL 1.0. http://www.openstreetmap.org/copyright", "osm_id": "227912087", "operator": "IP", "address": {"city": "Nembro", "country": "Italia", "county": "BG", "state": "LOM", "postcode": "24027", "country_code": "it", "fuel": "IP", "continent": "European Union", "road": "Via Roma"}}}, {"geometry": {"type": "Point", "coordinates": [1085325.22, 5738163.93]}, "type": "Feature", "properties": {"amenity": "fuel", "display_name": "Ip, Via Gabriele Camozzi, Nembro, BG, LOM, 24027, Italia", "name": "Ip", "brand": "Ip", "place_id": "20321870", "lon": "9.7496423", "lat": "45.7361281", "osm_type": "node", "licence": "Data \u00a9 OpenStreetMap contributors, ODbL 1.0. http://www.openstreetmap.org/copyright", "osm_id": "1922433053", "operator": "Ip", "address": {"city": "Nembro", "country": "Italia", "county": "BG", "state": "LOM", "postcode": "24027", "country_code": "it", "fuel": "Ip", "road": "Via Gabriele Camozzi"}}}, {"geometry": {"type": "Point", "coordinates": [1086806.3, 5731945.06]}, "type": "Feature", "properties": {"amenity": "fuel", "display_name": "Agip, Via Casale, Torre de' Roveri, BG, LOM, 24068, Italia, European Union", "name": "Agip", "brand": "Agip", "place_id": "599194", "lon": "9.7629471", "lat": "45.6971227", "osm_type": "node", "licence": "Data \u00a9 OpenStreetMap contributors, ODbL 1.0. http://www.openstreetmap.org/copyright", "osm_id": "227534327", "operator": "Agip", "address": {"city": "Torre de' Roveri", "country": "Italia", "county": "BG", "state": "LOM", "postcode": "24068", "country_code": "it", "fuel": "Agip", "continent": "European Union", "road": "Via Casale"}}}, {"geometry": {"type": "Point", "coordinates": [1087584.3, 5739097.46]}, "type": "Feature", "properties": {"amenity": "fuel", "display_name": "Q8, SP65, Pradalunga, BG, LOM, 24027, Italia, European Union", "name": "Q8", "brand": "q8", "place_id": "615556", "lon": "9.769936", "lat": "45.741981", "osm_type": "node", "licence": "Data \u00a9 OpenStreetMap contributors, ODbL 1.0. http://www.openstreetmap.org/copyright", "osm_id": "227518194", "operator": "Q8", "address": {"city": "Pradalunga", "country": "Italia", "county": "BG", "state": "LOM", "postcode": "24027", "country_code": "it", "fuel": "Q8", "continent": "European Union", "road": "SP65"}}}]}